{
  "type": "FeatureCollection",
  "crs": {
    "type": "name",
    "properties": {
      "name": "EPSG:4326"
    }
  },
  "features": [
    {
      "type": "Feature",
      "id": 3,
      "geometry": {
        "type": "Polygon",
        "coordinates": [
          [
            [
              -77.02281236099998,
              -12.090810604999945
            ],
            [
              -77.03016798699997,
              -12.09191022999994
            ],
            [
              -77.02987886099999,
              -12.091189479999969
            ],
            [
              -77.03346098599997,
              -12.090730479999934
            ],
            [
              -77.03373436099997,
              -12.089169978999962
            ],
            [
              -77.04317186099996,
              -12.090455103999943
            ],
            [
              -77.04306248599994,
              -12.091201229999967
            ],
            [
              -77.04645311199994,
              -12.091671854999959
            ],
            [
              -77.04649411199995,
              -12.09142385499996
            ],
            [
              -77.04761723699994,
              -12.09157622999993
            ],
            [
              -77.04858598599998,
              -12.085040979999974
            ],
            [
              -77.04908398599997,
              -12.085554729999956
            ],
            [
              -77.04962311099996,
              -12.08624610499993
            ],
            [
              -77.04990036099997,
              -12.08670310499997
            ],
            [
              -77.05321686099995,
              -12.093070354999952
            ],
            [
              -77.05498436099998,
              -12.091886729999942
            ],
            [
              -77.05576761099996,
              -12.093386729999963
            ],
            [
              -77.05738473599996,
              -12.092552729999966
            ],
            [
              -77.05888286099997,
              -12.096404354999947
            ],
            [
              -77.05838473699998,
              -12.096671854999954
            ],
            [
              -77.05936911099997,
              -12.09862110499995
            ],
            [
              -77.05948436099999,
              -12.099003854999978
            ],
            [
              -77.05995111099998,
              -12.100021479999953
            ],
            [
              -77.06020123599995,
              -12.099888729999975
            ],
            [
              -77.06079498599996,
              -12.100943229999928
            ],
            [
              -77.06057423599998,
              -12.101070354999933
            ],
            [
              -77.06068361099994,
              -12.101460979999956
            ],
            [
              -77.06074611099996,
              -12.101820354999973
            ],
            [
              -77.06077936099996,
              -12.102132853999933
            ],
            [
              -77.06066798599994,
              -12.102523479999945
            ],
            [
              -77.06054298699996,
              -12.10296285499993
            ],
            [
              -77.06062111199998,
              -12.103259729999934
            ],
            [
              -77.06062498599994,
              -12.103728479999972
            ],
            [
              -77.06051173599997,
              -12.104212854999957
            ],
            [
              -77.06035548599993,
              -12.104652354999928
            ],
            [
              -77.06030861199997,
              -12.105167979999976
            ],
            [
              -77.06046873599996,
              -12.107011729999954
            ],
            [
              -77.06070898599995,
              -12.10766010499998
            ],
            [
              -77.06063673599994,
              -12.107691354999929
            ],
            [
              -77.06056836099998,
              -12.107730354999944
            ],
            [
              -77.06051761099997,
              -12.10777735499994
            ],
            [
              -77.06045511099995,
              -12.107826229999944
            ],
            [
              -77.06038873599994,
              -12.107871104999958
            ],
            [
              -77.06023048599997,
              -12.108003854999936
            ],
            [
              -77.06015036199994,
              -12.108070354999938
            ],
            [
              -77.06009573599994,
              -12.108123104999947
            ],
            [
              -77.06000386099998,
              -12.108177729999966
            ],
            [
              -77.05994336099997,
              -12.108212729999934
            ],
            [
              -77.05985548599995,
              -12.108263854999961
            ],
            [
              -77.05977348599998,
              -12.108312479999938
            ],
            [
              -77.05969336099997,
              -12.108343729999945
            ],
            [
              -77.05961911099996,
              -12.108384729999955
            ],
            [
              -77.05953111199995,
              -12.108435604999954
            ],
            [
              -77.05945511199997,
              -12.108470729999965
            ],
            [
              -77.05935161099995,
              -12.108523479999974
            ],
            [
              -77.05927736099994,
              -12.108564479999927
            ],
            [
              -77.05923236099994,
              -12.108605479999937
            ],
            [
              -77.05918548599999,
              -12.108638604999953
            ],
            [
              -77.05913086099997,
              -12.10867385499995
            ],
            [
              -77.05904686099996,
              -12.108710979999955
            ],
            [
              -77.05892973599998,
              -12.108751979999965
            ],
            [
              -77.05885736099998,
              -12.108810604999974
            ],
            [
              -77.05879486099997,
              -12.108857479999926
            ],
            [
              -77.05867186099994,
              -12.10894922999995
            ],
            [
              -77.05854886199995,
              -12.10904297999997
            ],
            [
              -77.05843361199999,
              -12.109165979999943
            ],
            [
              -77.05836723599998,
              -12.109210979999943
            ],
            [
              -77.05831448599997,
              -12.10923822999996
            ],
            [
              -77.05827148599997,
              -12.109273479999956
            ],
            [
              -77.05820898599995,
              -12.109339854999973
            ],
            [
              -77.05815036099995,
              -12.109394479999935
            ],
            [
              -77.05808011199997,
              -12.10944335499994
            ],
            [
              -77.05800386199996,
              -12.109494229999939
            ],
            [
              -77.05792186099995,
              -12.109548854999957
            ],
            [
              -77.05786723699998,
              -12.109599604999971
            ],
            [
              -77.05779311099997,
              -12.109656229999928
            ],
            [
              -77.05766798699995,
              -12.109716854999931
            ],
            [
              -77.05760723599997,
              -12.109749979999947
            ],
            [
              -77.05755073599994,
              -12.109796854999956
            ],
            [
              -77.05749798699998,
              -12.10985160499996
            ],
            [
              -77.05741998599996,
              -12.10993560399993
            ],
            [
              -77.05730661099994,
              -12.109999979999941
            ],
            [
              -77.05723636099998,
              -12.110035104999952
            ],
            [
              -77.05714261099996,
              -12.110089854999956
            ],
            [
              -77.05706248599995,
              -12.11013872999996
            ],
            [
              -77.05696473599994,
              -12.110201229999973
            ],
            [
              -77.05690423599998,
              -12.11025197999993
            ],
            [
              -77.05684173599997,
              -12.110302729999944
            ],
            [
              -77.05677148699993,
              -12.110353479999958
            ],
            [
              -77.05672661099999,
              -12.110390604999964
            ],
            [
              -77.05666798599998,
              -12.110447229999977
            ],
            [
              -77.05663086099997,
              -12.110501979999981
            ],
            [
              -77.05657611199996,
              -12.110550729999943
            ],
            [
              -77.05650973599995,
              -12.110617229999946
            ],
            [
              -77.05640036099999,
              -12.11066985499997
            ],
            [
              -77.05629098599996,
              -12.110753854999928
            ],
            [
              -77.05622261199994,
              -12.110831854999958
            ],
            [
              -77.05616211199998,
              -12.110874979999949
            ],
            [
              -77.05608198599998,
              -12.110945354999956
            ],
            [
              -77.05601761099996,
              -12.110966729999973
            ],
            [
              -77.05596673699995,
              -12.111019479999982
            ],
            [
              -77.05574998599997,
              -12.110966729999973
            ],
            [
              -77.05569336099995,
              -12.110941354999966
            ],
            [
              -77.05558986099999,
              -12.110888729999942
            ],
            [
              -77.05541586199996,
              -12.110812479999936
            ],
            [
              -77.05534961099994,
              -12.11078122999993
            ],
            [
              -77.05516011099996,
              -12.110693354999967
            ],
            [
              -77.05507036099993,
              -12.11062110499995
            ],
            [
              -77.05500786199997,
              -12.110566354999946
            ],
            [
              -77.05497661099997,
              -12.110517604999927
            ],
            [
              -77.05493948599997,
              -12.110445354999968
            ],
            [
              -77.05495511199996,
              -12.110357479999948
            ],
            [
              -77.05497261199997,
              -12.110289104999936
            ],
            [
              -77.05497848599998,
              -12.110224604999928
            ],
            [
              -77.05496486099997,
              -12.110154354999963
            ],
            [
              -77.05492973599996,
              -12.110101604999954
            ],
            [
              -77.05485736199995,
              -12.110039104999942
            ],
            [
              -77.05478711199999,
              -12.11000585499994
            ],
            [
              -77.05474023599999,
              -12.109978479999938
            ],
            [
              -77.05469136099998,
              -12.109953104999931
            ],
            [
              -77.05462498599996,
              -12.10990435499997
            ],
            [
              -77.05455473599994,
              -12.109839854999962
            ],
            [
              -77.05447461199998,
              -12.10976560499995
            ],
            [
              -77.05441798699997,
              -12.109736354999939
            ],
            [
              -77.05429286099996,
              -12.109699229999933
            ],
            [
              -77.05374023599995,
              -12.109693354999933
            ],
            [
              -77.05355661199997,
              -12.109640604999981
            ],
            [
              -77.05350786099996,
              -12.109609354999975
            ],
            [
              -77.05342573599995,
              -12.109537104999959
            ],
            [
              -77.05334373599999,
              -12.109453104999943
            ],
            [
              -77.05331448599998,
              -12.109398479999982
            ],
            [
              -77.05326948599998,
              -12.109292979999964
            ],
            [
              -77.05319923599995,
              -12.10895910499994
            ],
            [
              -77.05315436099994,
              -12.108449229999962
            ],
            [
              -77.05306448599998,
              -12.108542979999982
            ],
            [
              -77.05288873599994,
              -12.108738229999972
            ],
            [
              -77.05275786199996,
              -12.108882853999944
            ],
            [
              -77.05258198599995,
              -12.10907810499998
            ],
            [
              -77.05248436099998,
              -12.109187479999946
            ],
            [
              -77.05236136099995,
              -12.10933010499997
            ],
            [
              -77.05220511199997,
              -12.109501979999948
            ],
            [
              -77.05208011099995,
              -12.109630854999978
            ],
            [
              -77.05201173599994,
              -12.109697228999948
            ],
            [
              -77.05196673599994,
              -12.109749979999947
            ],
            [
              -77.05190436199996,
              -12.109816229999979
            ],
            [
              -77.05186323599997,
              -12.10985935499997
            ],
            [
              -77.05177348699993,
              -12.109953104999931
            ],
            [
              -77.05169723599994,
              -12.110035104999952
            ],
            [
              -77.05161723599997,
              -12.110121104999962
            ],
            [
              -77.05152148699995,
              -12.110224604999928
            ],
            [
              -77.05141986099994,
              -12.110331979999955
            ],
            [
              -77.04926936099997,
              -12.108369104999952
            ],
            [
              -77.04669136099994,
              -12.110941354999966
            ],
            [
              -77.04618548599996,
              -12.110464854999975
            ],
            [
              -77.04499811199997,
              -12.110449229999972
            ],
            [
              -77.04415036199998,
              -12.110476604999974
            ],
            [
              -77.04352348599997,
              -12.110654354999951
            ],
            [
              -77.04311323599995,
              -12.110845729999937
            ],
            [
              -77.04046286099998,
              -12.10834572999994
            ],
            [
              -77.03994536099998,
              -12.108857479999926
            ],
            [
              -77.03904098699996,
              -12.109753854999951
            ],
            [
              -77.03824998599998,
              -12.108974604999958
            ],
            [
              -77.03715823699997,
              -12.110064479999949
            ],
            [
              -77.03661136199997,
              -12.110025354999948
            ],
            [
              -77.03148823699996,
              -12.103550729999938
            ],
            [
              -77.02732161199998,
              -12.102841979999937
            ],
            [
              -77.01876561099994,
              -12.101921854999944
            ],
            [
              -77.01641211099997,
              -12.102296854999963
            ],
            [
              -77.01651361099994,
              -12.103064479999944
            ],
            [
              -77.01648636099998,
              -12.103222604999928
            ],
            [
              -77.01643361099997,
              -12.103324229999942
            ],
            [
              -77.01632611099996,
              -12.10342785499995
            ],
            [
              -77.01611911099997,
              -12.103562354999951
            ],
            [
              -77.01641798599996,
              -12.104142604999936
            ],
            [
              -77.01647073699996,
              -12.10434760499993
            ],
            [
              -77.01655273599994,
              -12.105568354999946
            ],
            [
              -77.01498061099994,
              -12.107781229999944
            ],
            [
              -77.01469136199995,
              -12.108040979999942
            ],
            [
              -77.01044136099995,
              -12.107277354999951
            ],
            [
              -77.01062111099998,
              -12.106683604999944
            ],
            [
              -77.01211323599995,
              -12.099111354999934
            ],
            [
              -77.01100198599994,
              -12.095978479999928
            ],
            [
              -77.00769536099995,
              -12.089892604999932
            ],
            [
              -77.00759186099998,
              -12.08950585499997
            ],
            [
              -77.00755473599997,
              -12.08927147999998
            ],
            [
              -77.00754686099998,
              -12.088955104999968
            ],
            [
              -77.00756536099993,
              -12.088826979999965
            ],
            [
              -77.00756973599994,
              -12.088829479999958
            ],
            [
              -77.00982973599997,
              -12.089158854999937
            ],
            [
              -77.02281236099998,
              -12.090810604999945
            ]
          ]
        ]
      },
      "properties": {
        "OBJECTID": 3,
        "IDDPTO": "15",
        "NOMBDEP": "LIMA",
        "IDPROV": "1501",
        "NOMBPROV": "LIMA",
        "IDDIST": "150131",
        "NOMBDIST": "SAN ISIDRO",
        "sde.DBO.limites.area": 970.02431172,
        "Shape.STArea()": 0.0008051509279312086,
        "Shape.STLength()": 0.16847019423644208
      }
    },
    {
      "type": "Feature",
      "id": 4,
      "geometry": {
        "type": "Polygon",
        "coordinates": [
          [
            [
              -77.06314261199998,
              -12.086542978999944
            ],
            [
              -77.06332811199997,
              -12.086620479999965
            ],
            [
              -77.06347836099997,
              -12.086652354999956
            ],
            [
              -77.07210348599995,
              -12.083583979999958
            ],
            [
              -77.07221873599997,
              -12.083771479999939
            ],
            [
              -77.07228511099999,
              -12.083755854999936
            ],
            [
              -77.07353911199993,
              -12.085814479999954
            ],
            [
              -77.07392186099997,
              -12.085679729999981
            ],
            [
              -77.07491411099994,
              -12.087501979999956
            ],
            [
              -77.07374998599994,
              -12.087960979999934
            ],
            [
              -77.07409373599995,
              -12.088941354999974
            ],
            [
              -77.07511523699998,
              -12.088595604999966
            ],
            [
              -77.07618748699997,
              -12.091535104999934
            ],
            [
              -77.07747261099996,
              -12.095025354999962
            ],
            [
              -77.07767573599995,
              -12.09557622999995
            ],
            [
              -77.07762698599998,
              -12.09561135499996
            ],
            [
              -77.07756636099998,
              -12.095644479999976
            ],
            [
              -77.07745898699994,
              -12.09569922999998
            ],
            [
              -77.07734373599999,
              -12.095785229999933
            ],
            [
              -77.07723436099997,
              -12.09585347999996
            ],
            [
              -77.07713673599994,
              -12.095890604999965
            ],
            [
              -77.07704098699998,
              -12.09593360499997
            ],
            [
              -77.07692786099994,
              -12.09598635499998
            ],
            [
              -77.07678711099999,
              -12.096068354999943
            ],
            [
              -77.07670698599998,
              -12.09612885499996
            ],
            [
              -77.07674223599997,
              -12.096248104999972
            ],
            [
              -77.07670511199996,
              -12.096302729999934
            ],
            [
              -77.07662698599995,
              -12.096271479999928
            ],
            [
              -77.07658598699999,
              -12.096211104999952
            ],
            [
              -77.07645123599997,
              -12.096246104999977
            ],
            [
              -77.07634961199994,
              -12.096285104999936
            ],
            [
              -77.07623048699998,
              -12.096343729999944
            ],
            [
              -77.07614061199996,
              -12.096394479999958
            ],
            [
              -77.07593561099998,
              -12.096492229999967
            ],
            [
              -77.07570111099994,
              -12.096599604999938
            ],
            [
              -77.07556248599997,
              -12.096675729999959
            ],
            [
              -77.07543173599998,
              -12.09674410499997
            ],
            [
              -77.07533198699997,
              -12.096792979999975
            ],
            [
              -77.07521286199994,
              -12.096871104999934
            ],
            [
              -77.07523236199995,
              -12.09698810499998
            ],
            [
              -77.07515036099994,
              -12.097025354999971
            ],
            [
              -77.07500398699995,
              -12.096941354999956
            ],
            [
              -77.07484361099995,
              -12.097013604999972
            ],
            [
              -77.07467386199994,
              -12.097105479999982
            ],
            [
              -77.07449023599997,
              -12.097187479999945
            ],
            [
              -77.07431036099996,
              -12.097259729999962
            ],
            [
              -77.07410161199994,
              -12.097386729999926
            ],
            [
              -77.07392573599998,
              -12.097458979999942
            ],
            [
              -77.07379886199999,
              -12.097527354999954
            ],
            [
              -77.07368548699998,
              -12.097576229999959
            ],
            [
              -77.07357036099995,
              -12.09765447999996
            ],
            [
              -77.07353498699996,
              -12.09772460499994
            ],
            [
              -77.07359373599996,
              -12.097843729999965
            ],
            [
              -77.07353336099999,
              -12.097917979999977
            ],
            [
              -77.07344923599999,
              -12.097880854999971
            ],
            [
              -77.07339261099997,
              -12.097818354999959
            ],
            [
              -77.07333398599997,
              -12.097837854999966
            ],
            [
              -77.07325973699994,
              -12.097876979999967
            ],
            [
              -77.07317573599994,
              -12.097923854999976
            ],
            [
              -77.07307998699997,
              -12.097968729999934
            ],
            [
              -77.07299611099995,
              -12.098021479999943
            ],
            [
              -77.07288673599999,
              -12.098099604999959
            ],
            [
              -77.07282423599997,
              -12.09813472899998
            ],
            [
              -77.07268948699993,
              -12.09822660499998
            ],
            [
              -77.07261323699998,
              -12.098279354999931
            ],
            [
              -77.07255661099998,
              -12.098318354999947
            ],
            [
              -77.07248048599996,
              -12.098363229999961
            ],
            [
              -77.07240436099994,
              -12.098423854999965
            ],
            [
              -77.07234373699998,
              -12.098503854999933
            ],
            [
              -77.07225198699996,
              -12.098624979999954
            ],
            [
              -77.07217173599997,
              -12.098781229999929
            ],
            [
              -77.07208398599994,
              -12.098978479999971
            ],
            [
              -77.07203911099998,
              -12.099083979999932
            ],
            [
              -77.07193561099996,
              -12.099330104999979
            ],
            [
              -77.07198636099997,
              -12.099421853999957
            ],
            [
              -77.07202148599998,
              -12.099488229999963
            ],
            [
              -77.07213473699994,
              -12.099697229999947
            ],
            [
              -77.07223048599997,
              -12.099876979999976
            ],
            [
              -77.07227536099998,
              -12.100013729999944
            ],
            [
              -77.07219723599997,
              -12.100037104999956
            ],
            [
              -77.07211523599995,
              -12.099914103999936
            ],
            [
              -77.07204886199997,
              -12.099794979999956
            ],
            [
              -77.07194923599997,
              -12.09962497999993
            ],
            [
              -77.07188673699994,
              -12.099509728999976
            ],
            [
              -77.07181248599994,
              -12.099509729999966
            ],
            [
              -77.07165236199995,
              -12.099533229999963
            ],
            [
              -77.07159373599995,
              -12.099566354999979
            ],
            [
              -77.07148823699998,
              -12.099607478999928
            ],
            [
              -77.07140036199996,
              -12.099642604999929
            ],
            [
              -77.07131448599995,
              -12.099691354999948
            ],
            [
              -77.07121286099994,
              -12.099751979999951
            ],
            [
              -77.07110148599998,
              -12.09983197899993
            ],
            [
              -77.07100786199999,
              -12.099888729999975
            ],
            [
              -77.07091798699997,
              -12.099943354999937
            ],
            [
              -77.07085161099997,
              -12.099980354999957
            ],
            [
              -77.07080273599996,
              -12.100019479999958
            ],
            [
              -77.07060936199997,
              -12.100136729999974
            ],
            [
              -77.06966411199994,
              -12.100580104999949
            ],
            [
              -77.06946098599997,
              -12.100671854999973
            ],
            [
              -77.06936136199994,
              -12.100712854999927
            ],
            [
              -77.06926561199998,
              -12.100757854999927
            ],
            [
              -77.06919723599998,
              -12.10077347999993
            ],
            [
              -77.06911323599996,
              -12.100804729999936
            ],
            [
              -77.06905861099995,
              -12.100831979999953
            ],
            [
              -77.06899411199998,
              -12.10084960499995
            ],
            [
              -77.06894723599999,
              -12.100886728999967
            ],
            [
              -77.06886136099996,
              -12.100917979999963
            ],
            [
              -77.06878511099995,
              -12.100956979999978
            ],
            [
              -77.06867973699997,
              -12.101001979999978
            ],
            [
              -77.06859961199996,
              -12.101046854999936
            ],
            [
              -77.06852348599995,
              -12.101083979999942
            ],
            [
              -77.06839848599998,
              -12.101130854999951
            ],
            [
              -77.06823823699995,
              -12.101201229999958
            ],
            [
              -77.06816798599993,
              -12.101226604999965
            ],
            [
              -77.06808398599998,
              -12.101267604999975
            ],
            [
              -77.06798048699994,
              -12.101304729999981
            ],
            [
              -77.06788861099994,
              -12.101341979999972
            ],
            [
              -77.06780661099998,
              -12.10137885499995
            ],
            [
              -77.06769536099995,
              -12.101421854999955
            ],
            [
              -77.06758986099999,
              -12.101468729999965
            ],
            [
              -77.06750973599998,
              -12.101498104999962
            ],
            [
              -77.06745123599995,
              -12.101519479999979
            ],
            [
              -77.06736911199994,
              -12.101560604999975
            ],
            [
              -77.06730073599994,
              -12.101597604999938
            ],
            [
              -77.06722648599998,
              -12.101636854999981
            ],
            [
              -77.06711911099995,
              -12.101703104999956
            ],
            [
              -77.06699998599998,
              -12.10175197999996
            ],
            [
              -77.06691211099997,
              -12.101794979999966
            ],
            [
              -77.06682423599995,
              -12.101847604999932
            ],
            [
              -77.06673248599998,
              -12.101908229999935
            ],
            [
              -77.06668161099998,
              -12.101935604999937
            ],
            [
              -77.06658011099995,
              -12.101980479999952
            ],
            [
              -77.06649411099994,
              -12.102021479999962
            ],
            [
              -77.06642186099998,
              -12.102052729999969
            ],
            [
              -77.06636911199996,
              -12.102072229999976
            ],
            [
              -77.06624798599995,
              -12.102142604999926
            ],
            [
              -77.06610161199995,
              -12.102248104999944
            ],
            [
              -77.06601761099995,
              -12.10231635499997
            ],
            [
              -77.06592386099999,
              -12.102404354999976
            ],
            [
              -77.06587111099998,
              -12.102439354999944
            ],
            [
              -77.06577348599996,
              -12.10248235499995
            ],
            [
              -77.06571673599996,
              -12.10252735499995
            ],
            [
              -77.06563086199998,
              -12.102591854999957
            ],
            [
              -77.06554886099997,
              -12.102632854999968
            ],
            [
              -77.06544923699994,
              -12.102664104999974
            ],
            [
              -77.06539848599994,
              -12.10270122999998
            ],
            [
              -77.06532423599998,
              -12.102738229999943
            ],
            [
              -77.06525973699996,
              -12.102783229999943
            ],
            [
              -77.06519336199995,
              -12.102820354999949
            ],
            [
              -77.06510348699999,
              -12.102876979999962
            ],
            [
              -77.06500386099998,
              -12.102958979999926
            ],
            [
              -77.06492386099995,
              -12.103035104999947
            ],
            [
              -77.06484573599994,
              -12.103109354999958
            ],
            [
              -77.06476173599998,
              -12.103175729999975
            ],
            [
              -77.06464448599996,
              -12.103283229999931
            ],
            [
              -77.06446098599997,
              -12.103437479999968
            ],
            [
              -77.06434573599995,
              -12.103519479999932
            ],
            [
              -77.06429686199994,
              -12.10357622999993
            ],
            [
              -77.06421873699998,
              -12.103650354999957
            ],
            [
              -77.06415036099997,
              -12.103740229999971
            ],
            [
              -77.06408198699995,
              -12.103847604999942
            ],
            [
              -77.06402923699994,
              -12.10404097999998
            ],
            [
              -77.06402348599994,
              -12.104134729999942
            ],
            [
              -77.06405273599995,
              -12.104218729999957
            ],
            [
              -77.06407811199995,
              -12.104289104999964
            ],
            [
              -77.06411911199996,
              -12.10436135499998
            ],
            [
              -77.06420898599998,
              -12.104456979999952
            ],
            [
              -77.06429298599994,
              -12.104503854999962
            ],
            [
              -77.06435736199995,
              -12.104558604999966
            ],
            [
              -77.06445698599998,
              -12.104660103999947
            ],
            [
              -77.06450198699997,
              -12.104703104999942
            ],
            [
              -77.06454098599994,
              -12.104746104999947
            ],
            [
              -77.06458023599998,
              -12.10480272999996
            ],
            [
              -77.06456248699999,
              -12.104880854999976
            ],
            [
              -77.06446673599999,
              -12.10488472999998
            ],
            [
              -77.06440423599997,
              -12.104798853999966
            ],
            [
              -77.06433198599996,
              -12.104753854999956
            ],
            [
              -77.06425586099994,
              -12.104703104999942
            ],
            [
              -77.06421486099998,
              -12.10465435499998
            ],
            [
              -77.06415823599997,
              -12.104617229999974
            ],
            [
              -77.06406836099995,
              -12.10455660499997
            ],
            [
              -77.06397073699998,
              -12.104496229999938
            ],
            [
              -77.06389648599998,
              -12.104484354999954
            ],
            [
              -77.06381448599996,
              -12.104509729999961
            ],
            [
              -77.06371286099994,
              -12.104572229999974
            ],
            [
              -77.06355661099997,
              -12.10462885499993
            ],
            [
              -77.06350198599995,
              -12.104664104999927
            ],
            [
              -77.06331248599997,
              -12.104781229999958
            ],
            [
              -77.06306636099998,
              -12.104953104999936
            ],
            [
              -77.06291598599995,
              -12.105039104999946
            ],
            [
              -77.06274811199995,
              -12.10513672999997
            ],
            [
              -77.06262698699999,
              -12.105210979999981
            ],
            [
              -77.06257611099994,
              -12.105267604999938
            ],
            [
              -77.06249998599998,
              -12.10533197999996
            ],
            [
              -77.06236911199994,
              -12.105425729999979
            ],
            [
              -77.06223048599998,
              -12.105505854999933
            ],
            [
              -77.06212111099995,
              -12.10557035499994
            ],
            [
              -77.06202736099993,
              -12.10561722999995
            ],
            [
              -77.06192573599998,
              -12.105689479999967
            ],
            [
              -77.06184373599996,
              -12.105749979999928
            ],
            [
              -77.06175386099994,
              -12.105800729999942
            ],
            [
              -77.06164648699996,
              -12.105874979999953
            ],
            [
              -77.06151173599994,
              -12.105976604999967
            ],
            [
              -77.06141798599998,
              -12.106042979999927
            ],
            [
              -77.06127536099996,
              -12.106144479999955
            ],
            [
              -77.06122461199999,
              -12.10618560499995
            ],
            [
              -77.06114448599999,
              -12.106257854999967
            ],
            [
              -77.06107811099997,
              -12.106341854999926
            ],
            [
              -77.06100786199994,
              -12.106420104999927
            ],
            [
              -77.06092186099994,
              -12.106576229999973
            ],
            [
              -77.06086523699997,
              -12.10672072999995
            ],
            [
              -77.06087111099998,
              -12.10679685499997
            ],
            [
              -77.06090236099999,
              -12.106845729999975
            ],
            [
              -77.06103911099996,
              -12.107029354999952
            ],
            [
              -77.06108186199998,
              -12.107091854999965
            ],
            [
              -77.06114261099998,
              -12.107185604999927
            ],
            [
              -77.06123636099994,
              -12.107287104999955
            ],
            [
              -77.06131836099996,
              -12.107326229999956
            ],
            [
              -77.06135548599997,
              -12.107374979999975
            ],
            [
              -77.06137886099998,
              -12.107435729999963
            ],
            [
              -77.06146673599994,
              -12.107494104999944
            ],
            [
              -77.06148223599996,
              -12.107636729999967
            ],
            [
              -77.06146286099994,
              -12.107689479999976
            ],
            [
              -77.06140623699997,
              -12.107716854999978
            ],
            [
              -77.06134573599996,
              -12.107708979999927
            ],
            [
              -77.06130273599996,
              -12.107671854999978
            ],
            [
              -77.06126561099995,
              -12.107581979999964
            ],
            [
              -77.06121098599994,
              -12.107498104999934
            ],
            [
              -77.06108186199998,
              -12.107509729999947
            ],
            [
              -77.06102723599997,
              -12.10751947999995
            ],
            [
              -77.06096873599995,
              -12.10753122999995
            ],
            [
              -77.06091598599994,
              -12.107554729999947
            ],
            [
              -77.06085936199997,
              -12.107580104999954
            ],
            [
              -77.06080273599997,
              -12.107597479999981
            ],
            [
              -77.06070898599995,
              -12.10766010499998
            ],
            [
              -77.06046873599996,
              -12.107011729999954
            ],
            [
              -77.06030861199997,
              -12.105167979999976
            ],
            [
              -77.06035548599993,
              -12.104652354999928
            ],
            [
              -77.06051173599997,
              -12.104212854999957
            ],
            [
              -77.06062498599994,
              -12.103728479999972
            ],
            [
              -77.06062111199998,
              -12.103259729999934
            ],
            [
              -77.06054298699996,
              -12.10296285499993
            ],
            [
              -77.06066798599994,
              -12.102523479999945
            ],
            [
              -77.06077936099996,
              -12.102132853999933
            ],
            [
              -77.06074611099996,
              -12.101820354999973
            ],
            [
              -77.06068361099994,
              -12.101460979999956
            ],
            [
              -77.06057423599998,
              -12.101070354999933
            ],
            [
              -77.06079498599996,
              -12.100943229999928
            ],
            [
              -77.06020123599995,
              -12.099888729999975
            ],
            [
              -77.05995111099998,
              -12.100021479999953
            ],
            [
              -77.05948436099999,
              -12.099003854999978
            ],
            [
              -77.05936911099997,
              -12.09862110499995
            ],
            [
              -77.05838473699998,
              -12.096671854999954
            ],
            [
              -77.05888286099997,
              -12.096404354999947
            ],
            [
              -77.05738473599996,
              -12.092552729999966
            ],
            [
              -77.05576761099996,
              -12.093386729999963
            ],
            [
              -77.05498436099998,
              -12.091886729999942
            ],
            [
              -77.06241598599996,
              -12.087042979999978
            ],
            [
              -77.06314261199998,
              -12.086542978999944
            ]
          ]
        ]
      },
      "properties": {
        "OBJECTID": 4,
        "IDDPTO": "15",
        "NOMBDEP": "LIMA",
        "IDPROV": "1501",
        "NOMBPROV": "LIMA",
        "IDDIST": "150120",
        "NOMBDIST": "MAGDALENA DEL MAR",
        "sde.DBO.limites.area": 326.57524631,
        "Shape.STArea()": 0.0002710531453544718,
        "Shape.STLength()": 0.0818417663696756
      }
    },
    {
      "type": "Feature",
      "id": 19,
      "geometry": {
        "type": "Polygon",
        "coordinates": [
          [
            [
              -77.00258636099994,
              -12.126561854999977
            ],
            [
              -77.00467523599997,
              -12.123680229999934
            ],
            [
              -77.01016986199994,
              -12.115691354999967
            ],
            [
              -77.01302923599997,
              -12.117527354999936
            ],
            [
              -77.01319536199998,
              -12.117685604999963
            ],
            [
              -77.01325386099995,
              -12.117867229999945
            ],
            [
              -77.01324611099994,
              -12.118792979999967
            ],
            [
              -77.01380273599995,
              -12.118822104999936
            ],
            [
              -77.01380273699993,
              -12.11937885499998
            ],
            [
              -77.01729486199997,
              -12.119435479999936
            ],
            [
              -77.01727923599998,
              -12.120548854999981
            ],
            [
              -77.01821286099994,
              -12.120560104999981
            ],
            [
              -77.01824236199997,
              -12.120560479999938
            ],
            [
              -77.01822173599999,
              -12.12009160499997
            ],
            [
              -77.01820511099999,
              -12.119714854999927
            ],
            [
              -77.01820811099998,
              -12.119414479999932
            ],
            [
              -77.01823436199999,
              -12.119414104999976
            ],
            [
              -77.02409573599994,
              -12.119841729999962
            ],
            [
              -77.02491986199993,
              -12.119269479999957
            ],
            [
              -77.02518748599994,
              -12.119175729999938
            ],
            [
              -77.02582036099994,
              -12.119158229999925
            ],
            [
              -77.02582736099998,
              -12.119121229999962
            ],
            [
              -77.02614061099996,
              -12.117462854999928
            ],
            [
              -77.02617573599997,
              -12.117197229999931
            ],
            [
              -77.02615173599997,
              -12.116892354999948
            ],
            [
              -77.02594923599997,
              -12.11432622999996
            ],
            [
              -77.02596348599997,
              -12.114105479999978
            ],
            [
              -77.02600386199998,
              -12.11348247999996
            ],
            [
              -77.02614186099999,
              -12.111975854999969
            ],
            [
              -77.02631048599994,
              -12.110349479999968
            ],
            [
              -77.02655861099998,
              -12.108199229999968
            ],
            [
              -77.02731248599997,
              -12.10632035499998
            ],
            [
              -77.02741986199999,
              -12.105966854999963
            ],
            [
              -77.02746486099994,
              -12.105302354999935
            ],
            [
              -77.02746673699994,
              -12.103595729999938
            ],
            [
              -77.02732161199998,
              -12.102841979999937
            ],
            [
              -77.03148823699996,
              -12.103550729999938
            ],
            [
              -77.03661136199997,
              -12.110025354999948
            ],
            [
              -77.03715823699997,
              -12.110064479999949
            ],
            [
              -77.03824998599998,
              -12.108974604999958
            ],
            [
              -77.03904098699996,
              -12.109753854999951
            ],
            [
              -77.03994536099998,
              -12.108857479999926
            ],
            [
              -77.04046286099998,
              -12.10834572999994
            ],
            [
              -77.04311323599995,
              -12.110845729999937
            ],
            [
              -77.04352348599997,
              -12.110654354999951
            ],
            [
              -77.04415036199998,
              -12.110476604999974
            ],
            [
              -77.04499811199997,
              -12.110449229999972
            ],
            [
              -77.04618548599996,
              -12.110464854999975
            ],
            [
              -77.04669136099994,
              -12.110941354999966
            ],
            [
              -77.04926936099997,
              -12.108369104999952
            ],
            [
              -77.05141986099994,
              -12.110331979999955
            ],
            [
              -77.05152148699995,
              -12.110224604999928
            ],
            [
              -77.05161723599997,
              -12.110121104999962
            ],
            [
              -77.05169723599994,
              -12.110035104999952
            ],
            [
              -77.05177348699993,
              -12.109953104999931
            ],
            [
              -77.05186323599997,
              -12.10985935499997
            ],
            [
              -77.05190436199996,
              -12.109816229999979
            ],
            [
              -77.05196673599994,
              -12.109749979999947
            ],
            [
              -77.05201173599994,
              -12.109697228999948
            ],
            [
              -77.05208011099995,
              -12.109630854999978
            ],
            [
              -77.05220511199997,
              -12.109501979999948
            ],
            [
              -77.05236136099995,
              -12.10933010499997
            ],
            [
              -77.05248436099998,
              -12.109187479999946
            ],
            [
              -77.05258198599995,
              -12.10907810499998
            ],
            [
              -77.05275786199996,
              -12.108882853999944
            ],
            [
              -77.05288873599994,
              -12.108738229999972
            ],
            [
              -77.05306448599998,
              -12.108542979999982
            ],
            [
              -77.05315436099994,
              -12.108449229999962
            ],
            [
              -77.05319923599995,
              -12.10895910499994
            ],
            [
              -77.05326948599998,
              -12.109292979999964
            ],
            [
              -77.05331448599998,
              -12.109398479999982
            ],
            [
              -77.05334373599999,
              -12.109453104999943
            ],
            [
              -77.05342573599995,
              -12.109537104999959
            ],
            [
              -77.05350786099996,
              -12.109609354999975
            ],
            [
              -77.05355661199997,
              -12.109640604999981
            ],
            [
              -77.05374023599995,
              -12.109693354999933
            ],
            [
              -77.05429286099996,
              -12.109699229999933
            ],
            [
              -77.05441798699997,
              -12.109736354999939
            ],
            [
              -77.05447461199998,
              -12.10976560499995
            ],
            [
              -77.05455473599994,
              -12.109839854999962
            ],
            [
              -77.05462498599996,
              -12.10990435499997
            ],
            [
              -77.05469136099998,
              -12.109953104999931
            ],
            [
              -77.05474023599999,
              -12.109978479999938
            ],
            [
              -77.05478711199999,
              -12.11000585499994
            ],
            [
              -77.05485736199995,
              -12.110039104999942
            ],
            [
              -77.05492973599996,
              -12.110101604999954
            ],
            [
              -77.05496486099997,
              -12.110154354999963
            ],
            [
              -77.05497848599998,
              -12.110224604999928
            ],
            [
              -77.05497261199997,
              -12.110289104999936
            ],
            [
              -77.05495511199996,
              -12.110357479999948
            ],
            [
              -77.05493948599997,
              -12.110445354999968
            ],
            [
              -77.05497661099997,
              -12.110517604999927
            ],
            [
              -77.05500786199997,
              -12.110566354999946
            ],
            [
              -77.05507036099993,
              -12.11062110499995
            ],
            [
              -77.05516011099996,
              -12.110693354999967
            ],
            [
              -77.05534961099994,
              -12.11078122999993
            ],
            [
              -77.05541586199996,
              -12.110812479999936
            ],
            [
              -77.05558986099999,
              -12.110888729999942
            ],
            [
              -77.05569336099995,
              -12.110941354999966
            ],
            [
              -77.05574998599997,
              -12.110966729999973
            ],
            [
              -77.05596673699995,
              -12.111019479999982
            ],
            [
              -77.05591411099994,
              -12.111072104999948
            ],
            [
              -77.05585348699998,
              -12.111099604999936
            ],
            [
              -77.05573823599997,
              -12.11114847999994
            ],
            [
              -77.05567573599996,
              -12.111183604999951
            ],
            [
              -77.05562111099994,
              -12.111220728999967
            ],
            [
              -77.05555273599998,
              -12.11127147999997
            ],
            [
              -77.05546098599996,
              -12.111331979999932
            ],
            [
              -77.05539261199993,
              -12.111371104999932
            ],
            [
              -77.05533411199997,
              -12.111398479999934
            ],
            [
              -77.05526361199998,
              -12.11143747999995
            ],
            [
              -77.05516998699994,
              -12.111468729999956
            ],
            [
              -77.05508598699998,
              -12.111503854999967
            ],
            [
              -77.05500973699998,
              -12.111548854999967
            ],
            [
              -77.05494536099997,
              -12.111617229999979
            ],
            [
              -77.05486723599995,
              -12.11168360499994
            ],
            [
              -77.05479298599994,
              -12.11172460499995
            ],
            [
              -77.05466011199997,
              -12.111761729999955
            ],
            [
              -77.05458011099995,
              -12.11180660499997
            ],
            [
              -77.05451173699998,
              -12.111863229999926
            ],
            [
              -77.05446098599998,
              -12.111908229999926
            ],
            [
              -77.05441411099997,
              -12.111939479999933
            ],
            [
              -77.05434961099996,
              -12.111972604999949
            ],
            [
              -77.05429886199994,
              -12.111994104999951
            ],
            [
              -77.05423236099995,
              -12.112035104999961
            ],
            [
              -77.05414448699997,
              -12.112087729999928
            ],
            [
              -77.05405861099996,
              -12.112150354999926
            ],
            [
              -77.05398048599994,
              -12.112203104999935
            ],
            [
              -77.05393161199999,
              -12.112230479999937
            ],
            [
              -77.05385736099998,
              -12.112271479999947
            ],
            [
              -77.05373823699995,
              -12.112322229999961
            ],
            [
              -77.05367573599995,
              -12.112349604999963
            ],
            [
              -77.05360936199997,
              -12.112386729999969
            ],
            [
              -77.05348636099995,
              -12.11244135499993
            ],
            [
              -77.05343161099995,
              -12.112474604999932
            ],
            [
              -77.05336523599993,
              -12.112521479999941
            ],
            [
              -77.05333186099995,
              -12.112564479999946
            ],
            [
              -77.05329098599998,
              -12.112642604999962
            ],
            [
              -77.05322848599997,
              -12.112687479999977
            ],
            [
              -77.05314648599995,
              -12.112706979999928
            ],
            [
              -77.05306636199998,
              -12.112740229999929
            ],
            [
              -77.05299611099997,
              -12.112789104999933
            ],
            [
              -77.05293948699995,
              -12.112841854999942
            ],
            [
              -77.05289061199994,
              -12.112904354999955
            ],
            [
              -77.05284173599995,
              -12.112945354999965
            ],
            [
              -77.05274023599998,
              -12.112980479999976
            ],
            [
              -77.05261523699994,
              -12.113078104999943
            ],
            [
              -77.05252148599999,
              -12.11318360499996
            ],
            [
              -77.05243561099996,
              -12.113281229999927
            ],
            [
              -77.05236136099995,
              -12.11334960499994
            ],
            [
              -77.05225586199998,
              -12.11342972999995
            ],
            [
              -77.05213673599997,
              -12.11352347999997
            ],
            [
              -77.05207436099994,
              -12.113572229999932
            ],
            [
              -77.05200786099994,
              -12.113619104999941
            ],
            [
              -77.05191986199998,
              -12.113685603999954
            ],
            [
              -77.05186136099996,
              -12.113748104999956
            ],
            [
              -77.05181448699994,
              -12.113808604999974
            ],
            [
              -77.05176173699994,
              -12.113853479999932
            ],
            [
              -77.05163673599998,
              -12.11391210499994
            ],
            [
              -77.05155073599997,
              -12.11399410499996
            ],
            [
              -77.05145911099999,
              -12.114070354999967
            ],
            [
              -77.05138873599998,
              -12.114154354999926
            ],
            [
              -77.05127923599997,
              -12.114257854999948
            ],
            [
              -77.05122848699995,
              -12.11432222999997
            ],
            [
              -77.05115823599994,
              -12.114404354999976
            ],
            [
              -77.05110348699998,
              -12.11449222999994
            ],
            [
              -77.05105073599998,
              -12.114552729999957
            ],
            [
              -77.05099811199995,
              -12.114619104999974
            ],
            [
              -77.05094336199994,
              -12.114677729999926
            ],
            [
              -77.05090423599995,
              -12.114716854999926
            ],
            [
              -77.05083398599999,
              -12.114792979999947
            ],
            [
              -77.05074611099997,
              -12.114884729999972
            ],
            [
              -77.05067773599995,
              -12.114978479999934
            ],
            [
              -77.05063473599995,
              -12.11505472999994
            ],
            [
              -77.05058986099993,
              -12.115123104999952
            ],
            [
              -77.05055861099999,
              -12.115181604999975
            ],
            [
              -77.05052736099998,
              -12.115246104999926
            ],
            [
              -77.05049611099997,
              -12.115293104999978
            ],
            [
              -77.05048048599997,
              -12.115361354999948
            ],
            [
              -77.05045511199995,
              -12.115415979999966
            ],
            [
              -77.05040623599996,
              -12.115494104999982
            ],
            [
              -77.05035161199999,
              -12.115570354999932
            ],
            [
              -77.05032223599994,
              -12.115636729999949
            ],
            [
              -77.05025386199998,
              -12.11575972999998
            ],
            [
              -77.05023036099999,
              -12.115816354999936
            ],
            [
              -77.05020111099998,
              -12.11590622999995
            ],
            [
              -77.05018548699996,
              -12.115978479999967
            ],
            [
              -77.05020311099997,
              -12.116033229999971
            ],
            [
              -77.05022661099997,
              -12.116171854999948
            ],
            [
              -77.05025198599998,
              -12.11624022899997
            ],
            [
              -77.05027536099993,
              -12.116330104999975
            ],
            [
              -77.05032036099993,
              -12.116425729999946
            ],
            [
              -77.05036323599995,
              -12.116523479999955
            ],
            [
              -77.05126561099996,
              -12.117414103999977
            ],
            [
              -77.05117386099994,
              -12.11749610499993
            ],
            [
              -77.05033798699998,
              -12.11667972999993
            ],
            [
              -77.05026948699998,
              -12.11667972999993
            ],
            [
              -77.05014448599997,
              -12.116742229999943
            ],
            [
              -77.04998823599993,
              -12.116884729999981
            ],
            [
              -77.04983198599996,
              -12.116998104999936
            ],
            [
              -77.04970111099993,
              -12.11709760499997
            ],
            [
              -77.04954486199995,
              -12.117212854999934
            ],
            [
              -77.04940423699998,
              -12.117347604999964
            ],
            [
              -77.04927348599995,
              -12.117462854999928
            ],
            [
              -77.04911136099997,
              -12.11757810499995
            ],
            [
              -77.04889261099999,
              -12.117703104999975
            ],
            [
              -77.04878723699994,
              -12.117806479999956
            ],
            [
              -77.04861911099994,
              -12.117931604999967
            ],
            [
              -77.04846486199995,
              -12.117984354999976
            ],
            [
              -77.04831448699997,
              -12.118083979999938
            ],
            [
              -77.04806836099993,
              -12.118203104999964
            ],
            [
              -77.04788086199994,
              -12.118271479999976
            ],
            [
              -77.04772848699997,
              -12.118314479999981
            ],
            [
              -77.04763086099996,
              -12.11838672999994
            ],
            [
              -77.04757811099995,
              -12.118478479999965
            ],
            [
              -77.04745311099998,
              -12.118533229999969
            ],
            [
              -77.04730861199994,
              -12.118572229999927
            ],
            [
              -77.04710361099995,
              -12.118699229999947
            ],
            [
              -77.04700973599995,
              -12.118751979999956
            ],
            [
              -77.04684761099998,
              -12.118867229999978
            ],
            [
              -77.04679098599996,
              -12.11900197999995
            ],
            [
              -77.04670111199994,
              -12.11905472999996
            ],
            [
              -77.04660736199997,
              -12.11908985499997
            ],
            [
              -77.04648823599996,
              -12.119183604999932
            ],
            [
              -77.04636323599993,
              -12.119283229999951
            ],
            [
              -77.04626361099997,
              -12.119373104999966
            ],
            [
              -77.04609573599998,
              -12.119505854999943
            ],
            [
              -77.04596098599995,
              -12.119628854999974
            ],
            [
              -77.04591011099996,
              -12.119679728999927
            ],
            [
              -77.04584573599999,
              -12.11972460499993
            ],
            [
              -77.04581836099999,
              -12.119792978999953
            ],
            [
              -77.04575786199996,
              -12.11986522999996
            ],
            [
              -77.04569536099996,
              -12.119968729999925
            ],
            [
              -77.04561323599995,
              -12.120068354999944
            ],
            [
              -77.04558786099994,
              -12.120156229999964
            ],
            [
              -77.04555661099994,
              -12.120244104999927
            ],
            [
              -77.04553911199997,
              -12.120320354999933
            ],
            [
              -77.04553123599999,
              -12.120398479999949
            ],
            [
              -77.04552348599998,
              -12.120458979999967
            ],
            [
              -77.04556248599994,
              -12.12055472999998
            ],
            [
              -77.04560548599994,
              -12.120613229999947
            ],
            [
              -77.04565623599996,
              -12.120646479999948
            ],
            [
              -77.04569923599996,
              -12.12070897999996
            ],
            [
              -77.04572261199996,
              -12.120767604999969
            ],
            [
              -77.04576948599998,
              -12.120816354999931
            ],
            [
              -77.04586136199998,
              -12.12087497999994
            ],
            [
              -77.04592573599996,
              -12.12096285499996
            ],
            [
              -77.04593361099995,
              -12.121060604999968
            ],
            [
              -77.04600773599998,
              -12.121177729999943
            ],
            [
              -77.04604298599997,
              -12.121265604999962
            ],
            [
              -77.04600773699997,
              -12.121382854999979
            ],
            [
              -77.04653323599996,
              -12.121915978999937
            ],
            [
              -77.04646673699995,
              -12.121992229999933
            ],
            [
              -77.04593361099995,
              -12.121462854999947
            ],
            [
              -77.04585548599994,
              -12.121456979999948
            ],
            [
              -77.04579686099999,
              -12.121458979999943
            ],
            [
              -77.04573048599997,
              -12.121476604999941
            ],
            [
              -77.04566411099995,
              -12.12148435499995
            ],
            [
              -77.04560936099995,
              -12.121511729999952
            ],
            [
              -77.04551173599998,
              -12.121548854999958
            ],
            [
              -77.04543548599997,
              -12.121587854999973
            ],
            [
              -77.04535161099994,
              -12.121642604999977
            ],
            [
              -77.04529886099994,
              -12.121679854999968
            ],
            [
              -77.04523236099999,
              -12.12173047999994
            ],
            [
              -77.04516011099997,
              -12.12177735499995
            ],
            [
              -77.04506636099995,
              -12.12184760499997
            ],
            [
              -77.04499998599994,
              -12.12189847999997
            ],
            [
              -77.04489848599997,
              -12.121996103999948
            ],
            [
              -77.04482811199995,
              -12.122044979999941
            ],
            [
              -77.04476361099995,
              -12.12209372999996
            ],
            [
              -77.04470111099994,
              -12.12213872999996
            ],
            [
              -77.04463473599998,
              -12.12217572999998
            ],
            [
              -77.04457811199995,
              -12.122216854999976
            ],
            [
              -77.04453711099995,
              -12.122273479999933
            ],
            [
              -77.04447661099994,
              -12.122314479999943
            ],
            [
              -77.04441986099994,
              -12.122373104999951
            ],
            [
              -77.04435548599997,
              -12.122429729999965
            ],
            [
              -77.04430473599996,
              -12.122470729999975
            ],
            [
              -77.04423048699994,
              -12.122525354999937
            ],
            [
              -77.04415623599994,
              -12.12258597999994
            ],
            [
              -77.04408986099997,
              -12.12262697999995
            ],
            [
              -77.04404486099997,
              -12.12266210499996
            ],
            [
              -77.04398048599995,
              -12.12270897999997
            ],
            [
              -77.04391011199993,
              -12.122765604999927
            ],
            [
              -77.04384173599993,
              -12.12279497999998
            ],
            [
              -77.04376373599996,
              -12.122835979999934
            ],
            [
              -77.04368748699994,
              -12.122892604999947
            ],
            [
              -77.04362498599994,
              -12.122917979999954
            ],
            [
              -77.04354686099998,
              -12.122947229999966
            ],
            [
              -77.04346886199994,
              -12.122988229999976
            ],
            [
              -77.04342386099995,
              -12.123019479999925
            ],
            [
              -77.04336148699997,
              -12.12307422999993
            ],
            [
              -77.04325198599997,
              -12.123122979999948
            ],
            [
              -77.04301361199998,
              -12.123193354999955
            ],
            [
              -77.04284573599995,
              -12.12324997899998
            ],
            [
              -77.04274811099998,
              -12.123290979999979
            ],
            [
              -77.04260348599996,
              -12.123359354999934
            ],
            [
              -77.04252348699998,
              -12.12339647999994
            ],
            [
              -77.04247261199998,
              -12.12343560499994
            ],
            [
              -77.04230661099996,
              -12.123470603999976
            ],
            [
              -77.04218161099999,
              -12.123550729999977
            ],
            [
              -77.04202148599995,
              -12.123652354999933
            ],
            [
              -77.04179098599997,
              -12.123828104999973
            ],
            [
              -77.04164848599999,
              -12.123968729999945
            ],
            [
              -77.04154298699996,
              -12.124148479999974
            ],
            [
              -77.04168361099994,
              -12.124328104999961
            ],
            [
              -77.04159961099998,
              -12.124410104999981
            ],
            [
              -77.04141198599996,
              -12.124214854999934
            ],
            [
              -77.04131636099999,
              -12.124193229999946
            ],
            [
              -77.04121486099996,
              -12.124234354999942
            ],
            [
              -77.04114461099994,
              -12.124320354999952
            ],
            [
              -77.04104486099999,
              -12.124359354999967
            ],
            [
              -77.04080273599999,
              -12.12444135499993
            ],
            [
              -77.04059173699994,
              -12.124486229999945
            ],
            [
              -77.04049611199997,
              -12.124556604999952
            ],
            [
              -77.04031648599994,
              -12.124701229999971
            ],
            [
              -77.04007423699994,
              -12.12490235499996
            ],
            [
              -77.03989448599998,
              -12.125003854999932
            ],
            [
              -77.03976761099995,
              -12.125113229999954
            ],
            [
              -77.03964848599998,
              -12.12523047999997
            ],
            [
              -77.03957811099997,
              -12.125294979999978
            ],
            [
              -77.03941598599994,
              -12.125455104999958
            ],
            [
              -77.03925586099996,
              -12.125632854999935
            ],
            [
              -77.03909373599998,
              -12.125790979999977
            ],
            [
              -77.03895323599994,
              -12.125953104999951
            ],
            [
              -77.03875198599997,
              -12.126154354999926
            ],
            [
              -77.03861136099994,
              -12.12633985499997
            ],
            [
              -77.03851173599998,
              -12.126505854999948
            ],
            [
              -77.03851173699996,
              -12.126607479999961
            ],
            [
              -77.03854686099999,
              -12.126677854999969
            ],
            [
              -77.03858786099994,
              -12.126757729999952
            ],
            [
              -77.03934761099998,
              -12.12754297999993
            ],
            [
              -77.03924023599996,
              -12.127648479999948
            ],
            [
              -77.03851173699996,
              -12.126892604999966
            ],
            [
              -77.03843161099996,
              -12.12694335499998
            ],
            [
              -77.03824023699997,
              -12.127074229999948
            ],
            [
              -77.03808011099994,
              -12.12718947999997
            ],
            [
              -77.03798436099999,
              -12.127310604999934
            ],
            [
              -77.03776761099994,
              -12.127525354999932
            ],
            [
              -77.03765623599998,
              -12.12763672999995
            ],
            [
              -77.03759761099997,
              -12.127773354999931
            ],
            [
              -77.03745523699996,
              -12.127943354999957
            ],
            [
              -77.03733598699995,
              -12.128130854999938
            ],
            [
              -77.03718361099999,
              -12.12829297999997
            ],
            [
              -77.03710348599998,
              -12.128415854999957
            ],
            [
              -77.03708986099997,
              -12.128531229999965
            ],
            [
              -77.03718361099999,
              -12.128613229999928
            ],
            [
              -77.03726561099995,
              -12.128654479999966
            ],
            [
              -77.03726561099995,
              -12.12877347999995
            ],
            [
              -77.03710923599994,
              -12.128790979999962
            ],
            [
              -77.03698436199994,
              -12.128955104999932
            ],
            [
              -77.03690823599999,
              -12.129074229999958
            ],
            [
              -77.03679686199996,
              -12.129195354999979
            ],
            [
              -77.03668173599993,
              -12.129275354999947
            ],
            [
              -77.03655073599998,
              -12.129357479999953
            ],
            [
              -77.03643561099994,
              -12.129457104999972
            ],
            [
              -77.03630473599998,
              -12.129597604999958
            ],
            [
              -77.03611911099995,
              -12.129748104999976
            ],
            [
              -77.03594723599997,
              -12.129919979999954
            ],
            [
              -77.03577148599999,
              -12.130070479999972
            ],
            [
              -77.03566211199995,
              -12.130181604999962
            ],
            [
              -77.03558986099995,
              -12.130318354999929
            ],
            [
              -77.03553911199998,
              -12.130437479999955
            ],
            [
              -77.03711723599997,
              -12.132691479999949
            ],
            [
              -77.03700186099996,
              -12.132773479999969
            ],
            [
              -77.03568948699996,
              -12.130896479999933
            ],
            [
              -77.03557611099995,
              -12.130863229999932
            ],
            [
              -77.03545298599994,
              -12.130867229999978
            ],
            [
              -77.03534373599996,
              -12.130906229999937
            ],
            [
              -77.03519723599999,
              -12.130982479999943
            ],
            [
              -77.03503123599995,
              -12.131039104999957
            ],
            [
              -77.03492186199998,
              -12.131132854999976
            ],
            [
              -77.03481636099997,
              -12.131253854999954
            ],
            [
              -77.03467973599999,
              -12.13141797999998
            ],
            [
              -77.03454686099997,
              -12.13148835499993
            ],
            [
              -77.03439061099994,
              -12.131607479999957
            ],
            [
              -77.03418161099995,
              -12.13171685499998
            ],
            [
              -77.03399798599997,
              -12.131796854999948
            ],
            [
              -77.03382623599998,
              -12.131910104999974
            ],
            [
              -77.03366986199995,
              -12.131966854999973
            ],
            [
              -77.03350386099999,
              -12.131999979999932
            ],
            [
              -77.03344336099997,
              -12.132062479999945
            ],
            [
              -77.03334373699994,
              -12.132158229999959
            ],
            [
              -77.03317386099997,
              -12.132269479999934
            ],
            [
              -77.03284173599997,
              -12.132505854999977
            ],
            [
              -77.03268548599993,
              -12.132658229999947
            ],
            [
              -77.03254298699994,
              -12.132804729999975
            ],
            [
              -77.03237111199996,
              -12.132982479999953
            ],
            [
              -77.03213086199997,
              -12.133085979999976
            ],
            [
              -77.03191598599994,
              -12.13319722999995
            ],
            [
              -77.03176361199996,
              -12.133298854999964
            ],
            [
              -77.03165423699994,
              -12.133437479999941
            ],
            [
              -77.03147073599996,
              -12.133585979999964
            ],
            [
              -77.03132811099994,
              -12.133712854999942
            ],
            [
              -77.03124798599998,
              -12.133849604999966
            ],
            [
              -77.03114061099996,
              -12.133949229999928
            ],
            [
              -77.03102736099999,
              -12.134027229999958
            ],
            [
              -77.03093361099997,
              -12.134164104999968
            ],
            [
              -77.03083986099995,
              -12.134287104999942
            ],
            [
              -77.03069336199997,
              -12.13446872999998
            ],
            [
              -77.03053711099994,
              -12.134718729999975
            ],
            [
              -77.03038473599997,
              -12.134909979999975
            ],
            [
              -77.03024223699998,
              -12.135160104999954
            ],
            [
              -77.03015423699998,
              -12.135328104999928
            ],
            [
              -77.03004098699995,
              -12.135499979999963
            ],
            [
              -77.02992773599993,
              -12.135662104999938
            ],
            [
              -77.02983786199997,
              -12.135845729999971
            ],
            [
              -77.02979298599996,
              -12.135912104999932
            ],
            [
              -77.02975986099995,
              -12.135974604999944
            ],
            [
              -77.02974223599995,
              -12.136029354999948
            ],
            [
              -77.02969923599994,
              -12.136123104999967
            ],
            [
              -77.02965248599997,
              -12.136246104999941
            ],
            [
              -77.02958986099998,
              -12.13633397999996
            ],
            [
              -77.02953323599996,
              -12.136439479999979
            ],
            [
              -77.02949023599996,
              -12.136509729999943
            ],
            [
              -77.02945311099995,
              -12.136591729999964
            ],
            [
              -77.02941011099995,
              -12.136720729999979
            ],
            [
              -77.02936136099999,
              -12.136833979999949
            ],
            [
              -77.02933986199997,
              -12.13691010499997
            ],
            [
              -77.02929298599997,
              -12.136993979999943
            ],
            [
              -77.02926373699995,
              -12.137052729999937
            ],
            [
              -77.02924023599996,
              -12.137130854999953
            ],
            [
              -77.02919723599996,
              -12.137212854999973
            ],
            [
              -77.02915236099994,
              -12.137304729999926
            ],
            [
              -77.02911323599994,
              -12.137392604999945
            ],
            [
              -77.02909961099994,
              -12.137460979999958
            ],
            [
              -77.02911523699998,
              -12.137544979999973
            ],
            [
              -77.02939848699998,
              -12.137673854999946
            ],
            [
              -77.02937498599994,
              -12.137740229999963
            ],
            [
              -77.02913086099994,
              -12.137660104999952
            ],
            [
              -77.02908198599994,
              -12.137757854999961
            ],
            [
              -77.02905273599998,
              -12.137818354999979
            ],
            [
              -77.02902536099998,
              -12.137906229999942
            ],
            [
              -77.02899998699996,
              -12.138015604999964
            ],
            [
              -77.02896286199996,
              -12.138103479999927
            ],
            [
              -77.02892573599996,
              -12.138152353999942
            ],
            [
              -77.02886911099995,
              -12.138224604999948
            ],
            [
              -77.02879686099999,
              -12.138306604999968
            ],
            [
              -77.02874223599997,
              -12.138398479999978
            ],
            [
              -77.02870898599997,
              -12.138478479999947
            ],
            [
              -77.02869336199996,
              -12.138548854999954
            ],
            [
              -77.02866998599995,
              -12.138642604999973
            ],
            [
              -77.02865623599996,
              -12.138720729999932
            ],
            [
              -77.02861723599995,
              -12.138798854999948
            ],
            [
              -77.02858411099999,
              -12.138871104999964
            ],
            [
              -77.02856248599994,
              -12.138927729999978
            ],
            [
              -77.02848636099998,
              -12.139025229999959
            ],
            [
              -77.02844923599997,
              -12.13909760499996
            ],
            [
              -77.02843548699997,
              -12.139164104999963
            ],
            [
              -77.02842773599997,
              -12.139248104999979
            ],
            [
              -77.02840823599996,
              -12.139333979999947
            ],
            [
              -77.02841998599996,
              -12.13943747999997
            ],
            [
              -77.02845698599998,
              -12.139531229999932
            ],
            [
              -77.02851948599994,
              -12.139603478999959
            ],
            [
              -77.02856636199994,
              -12.139689479999959
            ],
            [
              -77.02954098699996,
              -12.140148479999937
            ],
            [
              -77.02943748599995,
              -12.140140604999942
            ],
            [
              -77.02845311199997,
              -12.139706979999971
            ],
            [
              -77.02830273699993,
              -12.139626979999946
            ],
            [
              -77.02818948599997,
              -12.13954885499993
            ],
            [
              -77.02793948599998,
              -12.139415979999967
            ],
            [
              -77.02788861099998,
              -12.139316354999949
            ],
            [
              -77.02776173599995,
              -12.139134729999967
            ],
            [
              -77.02762498599998,
              -12.138964854999927
            ],
            [
              -77.02747461099995,
              -12.138806604999957
            ],
            [
              -77.02709961099998,
              -12.138466854999933
            ],
            [
              -77.02681048599999,
              -12.138140604999933
            ],
            [
              -77.02667973599995,
              -12.137962854999955
            ],
            [
              -77.02656048699998,
              -12.137783229999968
            ],
            [
              -77.02598436199997,
              -12.136773479999931
            ],
            [
              -77.02591986099998,
              -12.136650354999972
            ],
            [
              -77.02581448699993,
              -12.136503854999944
            ],
            [
              -77.02568361099998,
              -12.136374979999971
            ],
            [
              -77.02551173599994,
              -12.136240229999942
            ],
            [
              -77.02541598599998,
              -12.13618560499998
            ],
            [
              -77.02531836099996,
              -12.136136729999976
            ],
            [
              -77.02521673599995,
              -12.136093728999981
            ],
            [
              -77.02511136099997,
              -12.136060604999955
            ],
            [
              -77.02500586199994,
              -12.136035104999962
            ],
            [
              -77.02489448599994,
              -12.136019479999959
            ],
            [
              -77.02467773699993,
              -12.135986354999943
            ],
            [
              -77.02456836199997,
              -12.13596485499994
            ],
            [
              -77.02424998599997,
              -12.13587885499993
            ],
            [
              -77.02404298599998,
              -12.13580660499997
            ],
            [
              -77.02299611099994,
              -12.135267604999967
            ],
            [
              -77.02311523599997,
              -12.134933604999958
            ],
            [
              -77.02250586099996,
              -12.13471485499997
            ],
            [
              -77.02210348599993,
              -12.134460979999972
            ],
            [
              -77.02169923599996,
              -12.134070354999949
            ],
            [
              -77.02127148699998,
              -12.133445354999935
            ],
            [
              -77.02115623599997,
              -12.133251854999969
            ],
            [
              -77.01961211099996,
              -12.130669104999981
            ],
            [
              -77.01948398699994,
              -12.13061222999994
            ],
            [
              -77.01945036099994,
              -12.130597354999963
            ],
            [
              -77.01914848599995,
              -12.131269479999958
            ],
            [
              -77.01799998699994,
              -12.131246104999946
            ],
            [
              -77.01802348599995,
              -12.130421854999952
            ],
            [
              -77.01731636099998,
              -12.130408228999954
            ],
            [
              -77.01731636099998,
              -12.13011135499994
            ],
            [
              -77.01712111199998,
              -12.129937479999967
            ],
            [
              -77.01643361099997,
              -12.130539104999968
            ],
            [
              -77.01616011099998,
              -12.129943354999966
            ],
            [
              -77.01587698599997,
              -12.13019922899997
            ],
            [
              -77.01571098599999,
              -12.129974604999973
            ],
            [
              -77.01558198699996,
              -12.129540979999945
            ],
            [
              -77.01519136099995,
              -12.129576229999941
            ],
            [
              -77.01474223599996,
              -12.129591854999944
            ],
            [
              -77.01436723599994,
              -12.129570354999942
            ],
            [
              -77.01399811099998,
              -12.129482604999964
            ],
            [
              -77.01373823599994,
              -12.129410104999977
            ],
            [
              -77.01348448699997,
              -12.12995310499997
            ],
            [
              -77.01309573599997,
              -12.129843729999948
            ],
            [
              -77.01305861099996,
              -12.130204979999974
            ],
            [
              -77.01318161099994,
              -12.130878854999935
            ],
            [
              -77.01299411199994,
              -12.131261729999949
            ],
            [
              -77.01257423599998,
              -12.130812479999975
            ],
            [
              -77.01245898599996,
              -12.13035747999993
            ],
            [
              -77.01187298599996,
              -12.130494104999968
            ],
            [
              -77.01177148699998,
              -12.130003854999927
            ],
            [
              -77.01130861199994,
              -12.130081979999943
            ],
            [
              -77.00942973599996,
              -12.129910104999965
            ],
            [
              -77.00958986199998,
              -12.128074229999982
            ],
            [
              -77.00956836199998,
              -12.12778510499993
            ],
            [
              -77.00955686099996,
              -12.127657729999953
            ],
            [
              -77.00559173599999,
              -12.12829297999997
            ],
            [
              -77.00163086099997,
              -12.12886135499997
            ],
            [
              -77.00093748599994,
              -12.128945354999928
            ],
            [
              -77.00258636099994,
              -12.126561854999977
            ]
          ]
        ]
      },
      "properties": {
        "OBJECTID": 19,
        "IDDPTO": "15",
        "NOMBDEP": "LIMA",
        "IDPROV": "1501",
        "NOMBPROV": "LIMA",
        "IDDIST": "150122",
        "NOMBDIST": "MIRAFLORES",
        "sde.DBO.limites.area": 914.87660032,
        "Shape.STArea()": 0.0007594444233518516,
        "Shape.STLength()": 0.18934032929908956
      }
    }
  ],
  "metadata": {
    "source": "Ministerio del Ambiente del Perú — Límite de los distritos de Lima Metropolitana (INEI, 2017)",
    "service_url": "https://geoservidorperu.minam.gob.pe/arcgis/rest/services/GEOLOMAS_final/MapServer/0/query",
    "districts": [
      "MAGDALENA DEL MAR",
      "SAN ISIDRO",
      "MIRAFLORES"
    ],
    "crs": "EPSG:4326"
  }
}