{
  "type": "FeatureCollection",
  "crs": {
    "type": "name",
    "properties": {
      "name": "EPSG:4326"
    }
  },
  "features": [
    {
      "type": "Feature",
      "id": 3,
      "geometry": {
        "type": "Polygon",
        "coordinates": [
          [
            [
              -77.02281236099998,
              -12.090810604999945
            ],
            [
              -77.03016798699997,
              -12.09191022999994
            ],
            [
              -77.02987886099999,
              -12.091189479999969
            ],
            [
              -77.03346098599997,
              -12.090730479999934
            ],
            [
              -77.03373436099997,
              -12.089169978999962
            ],
            [
              -77.04317186099996,
              -12.090455103999943
            ],
            [
              -77.04306248599994,
              -12.091201229999967
            ],
            [
              -77.04645311199994,
              -12.091671854999959
            ],
            [
              -77.04649411199995,
              -12.09142385499996
            ],
            [
              -77.04761723699994,
              -12.09157622999993
            ],
            [
              -77.04858598599998,
              -12.085040979999974
            ],
            [
              -77.04908398599997,
              -12.085554729999956
            ],
            [
              -77.04962311099996,
              -12.08624610499993
            ],
            [
              -77.04990036099997,
              -12.08670310499997
            ],
            [
              -77.05321686099995,
              -12.093070354999952
            ],
            [
              -77.05498436099998,
              -12.091886729999942
            ],
            [
              -77.05576761099996,
              -12.093386729999963
            ],
            [
              -77.05738473599996,
              -12.092552729999966
            ],
            [
              -77.05888286099997,
              -12.096404354999947
            ],
            [
              -77.05838473699998,
              -12.096671854999954
            ],
            [
              -77.05936911099997,
              -12.09862110499995
            ],
            [
              -77.05948436099999,
              -12.099003854999978
            ],
            [
              -77.05995111099998,
              -12.100021479999953
            ],
            [
              -77.06020123599995,
              -12.099888729999975
            ],
            [
              -77.06079498599996,
              -12.100943229999928
            ],
            [
              -77.06057423599998,
              -12.101070354999933
            ],
            [
              -77.06068361099994,
              -12.101460979999956
            ],
            [
              -77.06074611099996,
              -12.101820354999973
            ],
            [
              -77.06077936099996,
              -12.102132853999933
            ],
            [
              -77.06066798599994,
              -12.102523479999945
            ],
            [
              -77.06054298699996,
              -12.10296285499993
            ],
            [
              -77.06062111199998,
              -12.103259729999934
            ],
            [
              -77.06062498599994,
              -12.103728479999972
            ],
            [
              -77.06051173599997,
              -12.104212854999957
            ],
            [
              -77.06035548599993,
              -12.104652354999928
            ],
            [
              -77.06030861199997,
              -12.105167979999976
            ],
            [
              -77.06046873599996,
              -12.107011729999954
            ],
            [
              -77.06070898599995,
              -12.10766010499998
            ],
            [
              -77.06063673599994,
              -12.107691354999929
            ],
            [
              -77.06056836099998,
              -12.107730354999944
            ],
            [
              -77.06051761099997,
              -12.10777735499994
            ],
            [
              -77.06045511099995,
              -12.107826229999944
            ],
            [
              -77.06038873599994,
              -12.107871104999958
            ],
            [
              -77.06023048599997,
              -12.108003854999936
            ],
            [
              -77.06015036199994,
              -12.108070354999938
            ],
            [
              -77.06009573599994,
              -12.108123104999947
            ],
            [
              -77.06000386099998,
              -12.108177729999966
            ],
            [
              -77.05994336099997,
              -12.108212729999934
            ],
            [
              -77.05985548599995,
              -12.108263854999961
            ],
            [
              -77.05977348599998,
              -12.108312479999938
            ],
            [
              -77.05969336099997,
              -12.108343729999945
            ],
            [
              -77.05961911099996,
              -12.108384729999955
            ],
            [
              -77.05953111199995,
              -12.108435604999954
            ],
            [
              -77.05945511199997,
              -12.108470729999965
            ],
            [
              -77.05935161099995,
              -12.108523479999974
            ],
            [
              -77.05927736099994,
              -12.108564479999927
            ],
            [
              -77.05923236099994,
              -12.108605479999937
            ],
            [
              -77.05918548599999,
              -12.108638604999953
            ],
            [
              -77.05913086099997,
              -12.10867385499995
            ],
            [
              -77.05904686099996,
              -12.108710979999955
            ],
            [
              -77.05892973599998,
              -12.108751979999965
            ],
            [
              -77.05885736099998,
              -12.108810604999974
            ],
            [
              -77.05879486099997,
              -12.108857479999926
            ],
            [
              -77.05867186099994,
              -12.10894922999995
            ],
            [
              -77.05854886199995,
              -12.10904297999997
            ],
            [
              -77.05843361199999,
              -12.109165979999943
            ],
            [
              -77.05836723599998,
              -12.109210979999943
            ],
            [
              -77.05831448599997,
              -12.10923822999996
            ],
            [
              -77.05827148599997,
              -12.109273479999956
            ],
            [
              -77.05820898599995,
              -12.109339854999973
            ],
            [
              -77.05815036099995,
              -12.109394479999935
            ],
            [
              -77.05808011199997,
              -12.10944335499994
            ],
            [
              -77.05800386199996,
              -12.109494229999939
            ],
            [
              -77.05792186099995,
              -12.109548854999957
            ],
            [
              -77.05786723699998,
              -12.109599604999971
            ],
            [
              -77.05779311099997,
              -12.109656229999928
            ],
            [
              -77.05766798699995,
              -12.109716854999931
            ],
            [
              -77.05760723599997,
              -12.109749979999947
            ],
            [
              -77.05755073599994,
              -12.109796854999956
            ],
            [
              -77.05749798699998,
              -12.10985160499996
            ],
            [
              -77.05741998599996,
              -12.10993560399993
            ],
            [
              -77.05730661099994,
              -12.109999979999941
            ],
            [
              -77.05723636099998,
              -12.110035104999952
            ],
            [
              -77.05714261099996,
              -12.110089854999956
            ],
            [
              -77.05706248599995,
              -12.11013872999996
            ],
            [
              -77.05696473599994,
              -12.110201229999973
            ],
            [
              -77.05690423599998,
              -12.11025197999993
            ],
            [
              -77.05684173599997,
              -12.110302729999944
            ],
            [
              -77.05677148699993,
              -12.110353479999958
            ],
            [
              -77.05672661099999,
              -12.110390604999964
            ],
            [
              -77.05666798599998,
              -12.110447229999977
            ],
            [
              -77.05663086099997,
              -12.110501979999981
            ],
            [
              -77.05657611199996,
              -12.110550729999943
            ],
            [
              -77.05650973599995,
              -12.110617229999946
            ],
            [
              -77.05640036099999,
              -12.11066985499997
            ],
            [
              -77.05629098599996,
              -12.110753854999928
            ],
            [
              -77.05622261199994,
              -12.110831854999958
            ],
            [
              -77.05616211199998,
              -12.110874979999949
            ],
            [
              -77.05608198599998,
              -12.110945354999956
            ],
            [
              -77.05601761099996,
              -12.110966729999973
            ],
            [
              -77.05596673699995,
              -12.111019479999982
            ],
            [
              -77.05574998599997,
              -12.110966729999973
            ],
            [
              -77.05569336099995,
              -12.110941354999966
            ],
            [
              -77.05558986099999,
              -12.110888729999942
            ],
            [
              -77.05541586199996,
              -12.110812479999936
            ],
            [
              -77.05534961099994,
              -12.11078122999993
            ],
            [
              -77.05516011099996,
              -12.110693354999967
            ],
            [
              -77.05507036099993,
              -12.11062110499995
            ],
            [
              -77.05500786199997,
              -12.110566354999946
            ],
            [
              -77.05497661099997,
              -12.110517604999927
            ],
            [
              -77.05493948599997,
              -12.110445354999968
            ],
            [
              -77.05495511199996,
              -12.110357479999948
            ],
            [
              -77.05497261199997,
              -12.110289104999936
            ],
            [
              -77.05497848599998,
              -12.110224604999928
            ],
            [
              -77.05496486099997,
              -12.110154354999963
            ],
            [
              -77.05492973599996,
              -12.110101604999954
            ],
            [
              -77.05485736199995,
              -12.110039104999942
            ],
            [
              -77.05478711199999,
              -12.11000585499994
            ],
            [
              -77.05474023599999,
              -12.109978479999938
            ],
            [
              -77.05469136099998,
              -12.109953104999931
            ],
            [
              -77.05462498599996,
              -12.10990435499997
            ],
            [
              -77.05455473599994,
              -12.109839854999962
            ],
            [
              -77.05447461199998,
              -12.10976560499995
            ],
            [
              -77.05441798699997,
              -12.109736354999939
            ],
            [
              -77.05429286099996,
              -12.109699229999933
            ],
            [
              -77.05374023599995,
              -12.109693354999933
            ],
            [
              -77.05355661199997,
              -12.109640604999981
            ],
            [
              -77.05350786099996,
              -12.109609354999975
            ],
            [
              -77.05342573599995,
              -12.109537104999959
            ],
            [
              -77.05334373599999,
              -12.109453104999943
            ],
            [
              -77.05331448599998,
              -12.109398479999982
            ],
            [
              -77.05326948599998,
              -12.109292979999964
            ],
            [
              -77.05319923599995,
              -12.10895910499994
            ],
            [
              -77.05315436099994,
              -12.108449229999962
            ],
            [
              -77.05306448599998,
              -12.108542979999982
            ],
            [
              -77.05288873599994,
              -12.108738229999972
            ],
            [
              -77.05275786199996,
              -12.108882853999944
            ],
            [
              -77.05258198599995,
              -12.10907810499998
            ],
            [
              -77.05248436099998,
              -12.109187479999946
            ],
            [
              -77.05236136099995,
              -12.10933010499997
            ],
            [
              -77.05220511199997,
              -12.109501979999948
            ],
            [
              -77.05208011099995,
              -12.109630854999978
            ],
            [
              -77.05201173599994,
              -12.109697228999948
            ],
            [
              -77.05196673599994,
              -12.109749979999947
            ],
            [
              -77.05190436199996,
              -12.109816229999979
            ],
            [
              -77.05186323599997,
              -12.10985935499997
            ],
            [
              -77.05177348699993,
              -12.109953104999931
            ],
            [
              -77.05169723599994,
              -12.110035104999952
            ],
            [
              -77.05161723599997,
              -12.110121104999962
            ],
            [
              -77.05152148699995,
              -12.110224604999928
            ],
            [
              -77.05141986099994,
              -12.110331979999955
            ],
            [
              -77.04926936099997,
              -12.108369104999952
            ],
            [
              -77.04669136099994,
              -12.110941354999966
            ],
            [
              -77.04618548599996,
              -12.110464854999975
            ],
            [
              -77.04499811199997,
              -12.110449229999972
            ],
            [
              -77.04415036199998,
              -12.110476604999974
            ],
            [
              -77.04352348599997,
              -12.110654354999951
            ],
            [
              -77.04311323599995,
              -12.110845729999937
            ],
            [
              -77.04046286099998,
              -12.10834572999994
            ],
            [
              -77.03994536099998,
              -12.108857479999926
            ],
            [
              -77.03904098699996,
              -12.109753854999951
            ],
            [
              -77.03824998599998,
              -12.108974604999958
            ],
            [
              -77.03715823699997,
              -12.110064479999949
            ],
            [
              -77.03661136199997,
              -12.110025354999948
            ],
            [
              -77.03148823699996,
              -12.103550729999938
            ],
            [
              -77.02732161199998,
              -12.102841979999937
            ],
            [
              -77.01876561099994,
              -12.101921854999944
            ],
            [
              -77.01641211099997,
              -12.102296854999963
            ],
            [
              -77.01651361099994,
              -12.103064479999944
            ],
            [
              -77.01648636099998,
              -12.103222604999928
            ],
            [
              -77.01643361099997,
              -12.103324229999942
            ],
            [
              -77.01632611099996,
              -12.10342785499995
            ],
            [
              -77.01611911099997,
              -12.103562354999951
            ],
            [
              -77.01641798599996,
              -12.104142604999936
            ],
            [
              -77.01647073699996,
              -12.10434760499993
            ],
            [
              -77.01655273599994,
              -12.105568354999946
            ],
            [
              -77.01498061099994,
              -12.107781229999944
            ],
            [
              -77.01469136199995,
              -12.108040979999942
            ],
            [
              -77.01044136099995,
              -12.107277354999951
            ],
            [
              -77.01062111099998,
              -12.106683604999944
            ],
            [
              -77.01211323599995,
              -12.099111354999934
            ],
            [
              -77.01100198599994,
              -12.095978479999928
            ],
            [
              -77.00769536099995,
              -12.089892604999932
            ],
            [
              -77.00759186099998,
              -12.08950585499997
            ],
            [
              -77.00755473599997,
              -12.08927147999998
            ],
            [
              -77.00754686099998,
              -12.088955104999968
            ],
            [
              -77.00756536099993,
              -12.088826979999965
            ],
            [
              -77.00756973599994,
              -12.088829479999958
            ],
            [
              -77.00982973599997,
              -12.089158854999937
            ],
            [
              -77.02281236099998,
              -12.090810604999945
            ]
          ]
        ]
      },
      "properties": {
        "OBJECTID": 3,
        "IDDPTO": "15",
        "NOMBDEP": "LIMA",
        "IDPROV": "1501",
        "NOMBPROV": "LIMA",
        "IDDIST": "150131",
        "NOMBDIST": "SAN ISIDRO",
        "sde.DBO.limites.area": 970.02431172,
        "Shape.STArea()": 0.0008051509279312086,
        "Shape.STLength()": 0.16847019423644208
      }
    },
    {
      "type": "Feature",
      "id": 47,
      "geometry": {
        "type": "Polygon",
        "coordinates": [
          [
            [
              -76.93137311099997,
              -11.94217397999995
            ],
            [
              -76.93044711199997,
              -11.94159247999994
            ],
            [
              -76.92974486199995,
              -11.940674229999956
            ],
            [
              -76.92933973599997,
              -11.939269729999978
            ],
            [
              -76.92938048599996,
              -11.938190229999975
            ],
            [
              -76.92939373599995,
              -11.937838229999954
            ],
            [
              -76.92923161099998,
              -11.936649729999942
            ],
            [
              -76.92893561099999,
              -11.936080354999945
            ],
            [
              -76.92852936099996,
              -11.935299229999941
            ],
            [
              -76.92753011199994,
              -11.93411072999993
            ],
            [
              -76.92666573599996,
              -11.933543604999954
            ],
            [
              -76.92426186099993,
              -11.93230122999995
            ],
            [
              -76.92131786099998,
              -11.93127485499997
            ],
            [
              -76.91867086099995,
              -11.93016735499998
            ],
            [
              -76.91696923599994,
              -11.928951979999965
            ],
            [
              -76.91596986099995,
              -11.928141729999936
            ],
            [
              -76.91502448599994,
              -11.927115354999955
            ],
            [
              -76.91487973699998,
              -11.92669197999993
            ],
            [
              -76.91467336099998,
              -11.926088979999975
            ],
            [
              -76.91478148599998,
              -11.924981478999939
            ],
            [
              -76.91505148599998,
              -11.923603979999939
            ],
            [
              -76.91567273599998,
              -11.92255060499997
            ],
            [
              -76.91761748599998,
              -11.920767979999937
            ],
            [
              -76.91826561099998,
              -11.919660604999933
            ],
            [
              -76.91845473699993,
              -11.918283104999944
            ],
            [
              -76.91831973599994,
              -11.917283729999951
            ],
            [
              -76.91784836099998,
              -11.916569479999964
            ],
            [
              -76.91742836099996,
              -11.915933228999961
            ],
            [
              -76.91735173599994,
              -11.915703354999948
            ],
            [
              -76.91688823599998,
              -11.91431272999995
            ],
            [
              -76.91656411199995,
              -11.912854104999951
            ],
            [
              -76.91707711099997,
              -11.91123360499995
            ],
            [
              -76.91777948599997,
              -11.909802103999937
            ],
            [
              -76.91781223699996,
              -11.909586479999973
            ],
            [
              -76.91803136099998,
              -11.908140229999958
            ],
            [
              -76.91804961099996,
              -11.90801947999995
            ],
            [
              -76.91799561099998,
              -11.90645285499994
            ],
            [
              -76.91742836099996,
              -11.905129229999943
            ],
            [
              -76.91690798599996,
              -11.904234229999929
            ],
            [
              -76.91607786199995,
              -11.902806604999967
            ],
            [
              -76.91475448599994,
              -11.899943478999944
            ],
            [
              -76.91394411099998,
              -11.89732360499994
            ],
            [
              -76.91343098599998,
              -11.895027854999967
            ],
            [
              -76.91340398599993,
              -11.893407103999948
            ],
            [
              -76.91283673599997,
              -11.890949228999943
            ],
            [
              -76.91210748599997,
              -11.889274729999954
            ],
            [
              -76.91054086099996,
              -11.888545354999962
            ],
            [
              -76.90959161199999,
              -11.887978228999941
            ],
            [
              -76.90846111199994,
              -11.88730297899997
            ],
            [
              -76.90678661099997,
              -11.88678972899993
            ],
            [
              -76.90511198599995,
              -11.886168604999966
            ],
            [
              -76.90305923599993,
              -11.885223229999951
            ],
            [
              -76.89998011199998,
              -11.883332478999932
            ],
            [
              -76.89889973599998,
              -11.882468229999972
            ],
            [
              -76.89872673599996,
              -11.882257479999964
            ],
            [
              -76.89741423599997,
              -11.880658603999962
            ],
            [
              -76.89706311099997,
              -11.878794854999967
            ],
            [
              -76.89730836099994,
              -11.877299854999933
            ],
            [
              -76.89763023599994,
              -11.87533760399998
            ],
            [
              -76.89781936099996,
              -11.872987854999963
            ],
            [
              -76.89749523599994,
              -11.870394853999926
            ],
            [
              -76.89671198599996,
              -11.868666229999974
            ],
            [
              -76.89557748699997,
              -11.867153728999938
            ],
            [
              -76.89492923599994,
              -11.86574922899996
            ],
            [
              -76.89528036199994,
              -11.864749853999967
            ],
            [
              -76.89609073699995,
              -11.864128603999973
            ],
            [
              -76.89779236099997,
              -11.864128603999973
            ],
            [
              -76.89850311099997,
              -11.864250604999938
            ],
            [
              -76.90046623599994,
              -11.864587729999926
            ],
            [
              -76.90262711099996,
              -11.864749853999967
            ],
            [
              -76.90348186099999,
              -11.864847979999979
            ],
            [
              -76.90408136099995,
              -11.864916729999948
            ],
            [
              -76.90427448599996,
              -11.864938853999945
            ],
            [
              -76.90635436099996,
              -11.864884854999957
            ],
            [
              -76.90838011199997,
              -11.864938854999934
            ],
            [
              -76.90991973599995,
              -11.86496585499998
            ],
            [
              -76.91113711099996,
              -11.864948603999949
            ],
            [
              -76.91183736099998,
              -11.864938854999934
            ],
            [
              -76.91456536099997,
              -11.865587103999928
            ],
            [
              -76.91523761099995,
              -11.86576510499998
            ],
            [
              -76.91640186099994,
              -11.86607335399998
            ],
            [
              -76.91645123599994,
              -11.866080728999975
            ],
            [
              -76.91888698599996,
              -11.866451479999967
            ],
            [
              -76.92031848599999,
              -11.866586479999967
            ],
            [
              -76.92185798599996,
              -11.867207729999961
            ],
            [
              -76.92353261099998,
              -11.868531229999974
            ],
            [
              -76.92572036099995,
              -11.869827604999955
            ],
            [
              -76.92744898599994,
              -11.87044885399996
            ],
            [
              -76.92890748599996,
              -11.87063797999997
            ],
            [
              -76.92922861199997,
              -11.870632979999982
            ],
            [
              -76.93066311099994,
              -11.870610978999935
            ],
            [
              -76.93279698699996,
              -11.870340854999938
            ],
            [
              -76.93292623599996,
              -11.87031197999994
            ],
            [
              -76.93509273599994,
              -11.869827604999955
            ],
            [
              -76.93606148599997,
              -11.869452604999935
            ],
            [
              -76.93676736199996,
              -11.869179478999968
            ],
            [
              -76.93768573599993,
              -11.868288104999976
            ],
            [
              -76.93836098599996,
              -11.867288729999927
            ],
            [
              -76.93843186099997,
              -11.86704935499995
            ],
            [
              -76.93879311099994,
              -11.865830228999926
            ],
            [
              -76.93944136099998,
              -11.864398729999948
            ],
            [
              -76.94006261199996,
              -11.863318354999933
            ],
            [
              -76.94116998599998,
              -11.862156854999967
            ],
            [
              -76.94227536099999,
              -11.86086722899995
            ],
            [
              -76.94352736099995,
              -11.861544979999962
            ],
            [
              -76.94599711099994,
              -11.861881479999965
            ],
            [
              -76.94735048599995,
              -11.86210710499995
            ],
            [
              -76.94828511099996,
              -11.862815979999937
            ],
            [
              -76.95012198599994,
              -11.864008353999964
            ],
            [
              -76.95266773599997,
              -11.865490729999976
            ],
            [
              -76.95392448599995,
              -11.866650853999943
            ],
            [
              -76.95531036099999,
              -11.868197479999935
            ],
            [
              -76.95643811199994,
              -11.870066729999962
            ],
            [
              -76.95719461099998,
              -11.870430978999934
            ],
            [
              -76.95730823699995,
              -11.870485604999942
            ],
            [
              -76.95904836099999,
              -11.871065728999952
            ],
            [
              -76.96062736099998,
              -11.871806978999928
            ],
            [
              -76.96210973599995,
              -11.872902479999937
            ],
            [
              -76.96317323599999,
              -11.87399835399998
            ],
            [
              -76.96436561099995,
              -11.875544979999972
            ],
            [
              -76.96552573599996,
              -11.876834104999944
            ],
            [
              -76.96621061099995,
              -11.87761347999998
            ],
            [
              -76.96739473599996,
              -11.878960978999942
            ],
            [
              -76.96849036199995,
              -11.880894478999949
            ],
            [
              -76.96981161099995,
              -11.883214728999974
            ],
            [
              -76.97045611099998,
              -11.884213728999953
            ],
            [
              -76.97171311099999,
              -11.885631603999968
            ],
            [
              -76.97319536199996,
              -11.887629604999972
            ],
            [
              -76.97464548599999,
              -11.88962760499993
            ],
            [
              -76.97664348699999,
              -11.891270979999945
            ],
            [
              -76.97931811099994,
              -11.89226997999998
            ],
            [
              -76.98196061199997,
              -11.893107854999926
            ],
            [
              -76.98402311199999,
              -11.89436472999995
            ],
            [
              -76.98589148599996,
              -11.89539672899997
            ],
            [
              -76.98644086199994,
              -11.895859603999952
            ],
            [
              -76.98795461099996,
              -11.897146103999944
            ],
            [
              -76.98860398599999,
              -11.899400853999964
            ],
            [
              -76.98857323599998,
              -11.90127597999998
            ],
            [
              -76.98912661099996,
              -11.903888853999945
            ],
            [
              -76.98919373599995,
              -11.904050978999976
            ],
            [
              -76.98993736099999,
              -11.90584535499994
            ],
            [
              -76.99054061099997,
              -11.907300979999945
            ],
            [
              -76.99060198599994,
              -11.908469103999948
            ],
            [
              -76.99014098599997,
              -11.911543104999964
            ],
            [
              -76.99018898699995,
              -11.913076979999971
            ],
            [
              -76.99020248599999,
              -11.913510479999957
            ],
            [
              -76.98937873599994,
              -11.914425853999944
            ],
            [
              -76.98881923699997,
              -11.915047479999942
            ],
            [
              -76.98875923599996,
              -11.915222979999953
            ],
            [
              -76.98838873599993,
              -11.916307854999957
            ],
            [
              -76.98897286099998,
              -11.916799604999937
            ],
            [
              -76.99041761099994,
              -11.916984104999926
            ],
            [
              -76.99275386099998,
              -11.916861104999953
            ],
            [
              -76.99567423599996,
              -11.917322104999926
            ],
            [
              -76.99693448699998,
              -11.91849035499996
            ],
            [
              -76.99825636099996,
              -11.919719979999968
            ],
            [
              -76.99925973599994,
              -11.921044979999976
            ],
            [
              -76.99960886099996,
              -11.922855229999982
            ],
            [
              -77.00028511099998,
              -11.92402347999996
            ],
            [
              -77.00222073699996,
              -11.925345729999947
            ],
            [
              -77.00335911099995,
              -11.926790104999952
            ],
            [
              -77.00458873599996,
              -11.928173354999956
            ],
            [
              -77.00514211199999,
              -11.928880479999975
            ],
            [
              -77.00538798599996,
              -11.92989485499993
            ],
            [
              -77.00649461199998,
              -11.93149335399994
            ],
            [
              -77.00815461199994,
              -11.93235397999996
            ],
            [
              -77.01021411199997,
              -11.933368479999956
            ],
            [
              -77.01279623599999,
              -11.935089854999944
            ],
            [
              -77.01467148599994,
              -11.93595060499996
            ],
            [
              -77.01617773599997,
              -11.936811354999975
            ],
            [
              -77.01676173599998,
              -11.937794979999978
            ],
            [
              -77.01648511099995,
              -11.939916103999963
            ],
            [
              -77.01639286099999,
              -11.94182197899994
            ],
            [
              -77.01700761199999,
              -11.943850729999951
            ],
            [
              -77.01763873599998,
              -11.949581978999959
            ],
            [
              -77.01900573699999,
              -11.951504978999935
            ],
            [
              -77.02012748599998,
              -11.952536979999934
            ],
            [
              -77.02054286199996,
              -11.952918979999936
            ],
            [
              -77.02211048599997,
              -11.954117854999936
            ],
            [
              -77.02401636099995,
              -11.955531854999947
            ],
            [
              -77.02530736199998,
              -11.956915229999936
            ],
            [
              -77.02610661099999,
              -11.957929604999947
            ],
            [
              -77.02712111099999,
              -11.958882604999928
            ],
            [
              -77.02828123599994,
              -11.96067772999993
            ],
            [
              -77.02871673599998,
              -11.962519479999969
            ],
            [
              -77.02879298699997,
              -11.964019479999934
            ],
            [
              -77.02858011099994,
              -11.96461722999993
            ],
            [
              -77.02794423599994,
              -11.965714104999961
            ],
            [
              -77.02764186099995,
              -11.966352479999955
            ],
            [
              -77.02765773599998,
              -11.966619604999948
            ],
            [
              -77.02768361099999,
              -11.96705460499993
            ],
            [
              -77.02787711099995,
              -11.967578603999982
            ],
            [
              -77.02853211099995,
              -11.968569728999967
            ],
            [
              -77.02956248699996,
              -11.971109354999953
            ],
            [
              -77.02945123599994,
              -11.975673854999968
            ],
            [
              -77.02937198599994,
              -11.977976104999982
            ],
            [
              -77.02913686199997,
              -11.980546104999974
            ],
            [
              -77.02895211099997,
              -11.982192229999953
            ],
            [
              -77.02910323599997,
              -11.982931229999963
            ],
            [
              -77.02955673699995,
              -11.983754354999974
            ],
            [
              -77.03017823599998,
              -11.984879729999932
            ],
            [
              -77.03032936199997,
              -11.985803479999959
            ],
            [
              -77.03029986099995,
              -11.986020854999936
            ],
            [
              -77.03022861099998,
              -11.986542604999954
            ],
            [
              -77.03014461099997,
              -11.987248103999946
            ],
            [
              -77.03019511099995,
              -11.98844072999998
            ],
            [
              -77.03029698599994,
              -11.98896485399996
            ],
            [
              -77.03043023699996,
              -11.989650104999953
            ],
            [
              -77.03046386099999,
              -11.990741979999939
            ],
            [
              -77.03034623599996,
              -11.992740854999965
            ],
            [
              -77.03056461099999,
              -11.994672478999973
            ],
            [
              -77.03065423599998,
              -11.996388729999978
            ],
            [
              -77.02957223599998,
              -11.997210979999977
            ],
            [
              -77.02913273599995,
              -11.998082729999965
            ],
            [
              -77.02901086199995,
              -11.998324604999937
            ],
            [
              -77.02856748599999,
              -11.999033979999979
            ],
            [
              -77.02847886099994,
              -12.000452354999936
            ],
            [
              -77.02774748599995,
              -12.003134229999944
            ],
            [
              -77.02701598599998,
              -12.004486354999926
            ],
            [
              -77.02590786099995,
              -12.005705354999975
            ],
            [
              -77.02587136099999,
              -12.005764479999982
            ],
            [
              -77.02555161099997,
              -12.006281729999955
            ],
            [
              -77.02552536199994,
              -12.006324229999962
            ],
            [
              -77.02552661099998,
              -12.006526854999947
            ],
            [
              -77.02553098599998,
              -12.007234729999936
            ],
            [
              -77.02533136099999,
              -12.00907435399995
            ],
            [
              -77.02462223599997,
              -12.009916603999955
            ],
            [
              -77.02439373599998,
              -12.010051229999931
            ],
            [
              -77.02313436099996,
              -12.010792854999977
            ],
            [
              -77.02311848599999,
              -12.010806978999938
            ],
            [
              -77.02245011099996,
              -12.011401729999932
            ],
            [
              -77.02220623599999,
              -12.01208872999996
            ],
            [
              -77.02193523599993,
              -12.013047854999968
            ],
            [
              -77.02191811099993,
              -12.013108354999929
            ],
            [
              -77.02131973599995,
              -12.014659854999934
            ],
            [
              -77.02063261099994,
              -12.015790229999936
            ],
            [
              -77.02034448599994,
              -12.017053604999944
            ],
            [
              -77.02034173599998,
              -12.017830229999959
            ],
            [
              -77.02032236099996,
              -12.019203604999973
            ],
            [
              -77.01992336099994,
              -12.020267479999973
            ],
            [
              -77.01976823599995,
              -12.021287104999942
            ],
            [
              -77.02000236099997,
              -12.022011978999956
            ],
            [
              -77.02023361099998,
              -12.022727729999929
            ],
            [
              -77.02058836099997,
              -12.023946853999973
            ],
            [
              -77.02098723599994,
              -12.024700478999932
            ],
            [
              -77.02165223599997,
              -12.025165854999955
            ],
            [
              -77.02190336099994,
              -12.025278354999955
            ],
            [
              -77.02207036099998,
              -12.025435604999927
            ],
            [
              -77.02216211099994,
              -12.025568354999962
            ],
            [
              -77.02221773599996,
              -12.026202104999982
            ],
            [
              -77.02214898699998,
              -12.026771979999978
            ],
            [
              -77.02228661099997,
              -12.027400979999982
            ],
            [
              -77.02240448599997,
              -12.02800035499996
            ],
            [
              -77.02217848599997,
              -12.02847197999995
            ],
            [
              -77.02158886099994,
              -12.029208979999964
            ],
            [
              -77.02093036099996,
              -12.03027035499997
            ],
            [
              -77.01996748599998,
              -12.031351229999927
            ],
            [
              -77.01947611099996,
              -12.032019479999974
            ],
            [
              -77.01883723599997,
              -12.033179103999942
            ],
            [
              -77.01786461099994,
              -12.03459410499994
            ],
            [
              -77.01712761099998,
              -12.035458853999955
            ],
            [
              -77.01644948599994,
              -12.036166354999978
            ],
            [
              -77.01574811099994,
              -12.03652535499998
            ],
            [
              -77.01471473599997,
              -12.03692572999995
            ],
            [
              -77.01376561099994,
              -12.037126979999925
            ],
            [
              -77.01285573599995,
              -12.03728247999993
            ],
            [
              -77.01253111099999,
              -12.036249104999968
            ],
            [
              -77.01228473599997,
              -12.034771604999946
            ],
            [
              -77.01227073699994,
              -12.034687604999931
            ],
            [
              -77.01228761099998,
              -12.034232729999928
            ],
            [
              -77.01198848699994,
              -12.03351497999995
            ],
            [
              -77.01164961099994,
              -12.032866979999937
            ],
            [
              -77.01139036099994,
              -12.032288729999948
            ],
            [
              -77.01110123699993,
              -12.031780229999981
            ],
            [
              -77.01064261099998,
              -12.031271854999943
            ],
            [
              -77.01017411099997,
              -12.030972729999974
            ],
            [
              -77.00972548599998,
              -12.030653728999937
            ],
            [
              -77.00930673599998,
              -12.030394479999927
            ],
            [
              -77.00877836199999,
              -12.030205104999936
            ],
            [
              -77.00802073599993,
              -12.030025604999935
            ],
            [
              -77.00709348599997,
              -12.029975854999975
            ],
            [
              -77.00615661199998,
              -12.029954979999957
            ],
            [
              -77.00577761099998,
              -12.029836229999944
            ],
            [
              -77.00511961099994,
              -12.029646854999953
            ],
            [
              -77.00415261099994,
              -12.029507229999979
            ],
            [
              -77.00367398599997,
              -12.029287978999946
            ],
            [
              -77.00302598599995,
              -12.02900872999993
            ],
            [
              -77.00230461099994,
              -12.028622729999938
            ],
            [
              -77.00169011099996,
              -12.028450479999947
            ],
            [
              -77.00086261199993,
              -12.028231104999975
            ],
            [
              -77.00045386099998,
              -12.028131479999956
            ],
            [
              -76.99969623599998,
              -12.027882229999932
            ],
            [
              -76.99894848599996,
              -12.027812479999966
            ],
            [
              -76.99825061099995,
              -12.027692853999952
            ],
            [
              -76.99785186199995,
              -12.027622979999933
            ],
            [
              -76.99728361199999,
              -12.027333853999949
            ],
            [
              -76.99673523599995,
              -12.027144479999947
            ],
            [
              -76.99616698599993,
              -12.027054729999975
            ],
            [
              -76.99583798599997,
              -12.026974979999977
            ],
            [
              -76.99518011199996,
              -12.026925104999975
            ],
            [
              -76.99482111099996,
              -12.026925104999975
            ],
            [
              -76.99441236099995,
              -12.026945104999982
            ],
            [
              -76.99412336099994,
              -12.026955104999956
            ],
            [
              -76.99362486099994,
              -12.026955104999956
            ],
            [
              -76.99289711199998,
              -12.026945104999982
            ],
            [
              -76.99241848599996,
              -12.026835479999932
            ],
            [
              -76.99162098599999,
              -12.026835479999932
            ],
            [
              -76.99120223599994,
              -12.026825478999967
            ],
            [
              -76.99047448599998,
              -12.026905228999965
            ],
            [
              -76.98991623599994,
              -12.026994979999927
            ],
            [
              -76.98940773599998,
              -12.026925103999929
            ],
            [
              -76.98919836099998,
              -12.026865354999927
            ],
            [
              -76.98897911099994,
              -12.026835479999932
            ],
            [
              -76.98867998599997,
              -12.02674572899997
            ],
            [
              -76.98851048599994,
              -12.026735729999928
            ],
            [
              -76.98821136199996,
              -12.026636104999966
            ],
            [
              -76.98771298599996,
              -12.026546354999937
            ],
            [
              -76.98701511099995,
              -12.026516479999941
            ],
            [
              -76.98657648599993,
              -12.026526353999941
            ],
            [
              -76.98596823599996,
              -12.026376854999967
            ],
            [
              -76.98544986199994,
              -12.026267229999974
            ],
            [
              -76.98486173699996,
              -12.026247229999967
            ],
            [
              -76.98423361199997,
              -12.026177479999944
            ],
            [
              -76.98350586099997,
              -12.02603785499997
            ],
            [
              -76.98294761099999,
              -12.025918229999945
            ],
            [
              -76.98235086099999,
              -12.02573435499994
            ],
            [
              -76.98200236099996,
              -12.025672104999956
            ],
            [
              -76.98167561199995,
              -12.025640228999976
            ],
            [
              -76.98148411099999,
              -12.025633604999939
            ],
            [
              -76.98104423599995,
              -12.025566479999952
            ],
            [
              -76.98066248599997,
              -12.02554497999995
            ],
            [
              -76.98039598599996,
              -12.02554497999995
            ],
            [
              -76.98008623599998,
              -12.025566479999952
            ],
            [
              -76.97969736199997,
              -12.025638604999926
            ],
            [
              -76.97942473599994,
              -12.025731604999976
            ],
            [
              -76.97904861099994,
              -12.025751729999968
            ],
            [
              -76.97878986099994,
              -12.025825854999937
            ],
            [
              -76.97850936099996,
              -12.025855854999975
            ],
            [
              -76.97814161099996,
              -12.025876229999938
            ],
            [
              -76.97784623599995,
              -12.025941104999958
            ],
            [
              -76.97760861099994,
              -12.025955479999936
            ],
            [
              -76.97737098599998,
              -12.02599872999997
            ],
            [
              -76.97717648599996,
              -12.026027479999982
            ],
            [
              -76.97696123599997,
              -12.026089103999936
            ],
            [
              -76.97669386099994,
              -12.026142728999957
            ],
            [
              -76.97639136199996,
              -12.026243604999934
            ],
            [
              -76.97593761199994,
              -12.026243604999934
            ],
            [
              -76.97558511099999,
              -12.02625235499994
            ],
            [
              -76.97509486199993,
              -12.026243604999934
            ],
            [
              -76.97464836099994,
              -12.026164354999935
            ],
            [
              -76.97417298599999,
              -12.026171604999945
            ],
            [
              -76.97382011099995,
              -12.026070728999969
            ],
            [
              -76.97341673599993,
              -12.02604185499996
            ],
            [
              -76.97295573599996,
              -12.02604910499997
            ],
            [
              -76.97255961099995,
              -12.026063479999948
            ],
            [
              -76.97217786099998,
              -12.026085103999947
            ],
            [
              -76.97196186099995,
              -12.026092354999946
            ],
            [
              -76.97165211099997,
              -12.02618597999998
            ],
            [
              -76.97101998699998,
              -12.026259979999963
            ],
            [
              -76.97028361199995,
              -12.026337229999967
            ],
            [
              -76.96979386099997,
              -12.026409228999967
            ],
            [
              -76.96936173599994,
              -12.026517229999968
            ],
            [
              -76.96886473699999,
              -12.026567728999964
            ],
            [
              -76.96833173599998,
              -12.026639729999943
            ],
            [
              -76.96779148599995,
              -12.026553229999934
            ],
            [
              -76.96713611199993,
              -12.026481229999945
            ],
            [
              -76.96648786099996,
              -12.026301229999945
            ],
            [
              -76.96612773599998,
              -12.02623635499998
            ],
            [
              -76.96547948599994,
              -12.025962728999957
            ],
            [
              -76.96509061099994,
              -12.025746604999938
            ],
            [
              -76.96460073599997,
              -12.02553772999994
            ],
            [
              -76.96398861099993,
              -12.025429729999928
            ],
            [
              -76.96315311199999,
              -12.025263979999977
            ],
            [
              -76.96236811099999,
              -12.025044229999935
            ],
            [
              -76.96180623599997,
              -12.024882354999932
            ],
            [
              -76.96076186099998,
              -12.024514979999935
            ],
            [
              -76.96016398599994,
              -12.02414760499994
            ],
            [
              -76.95944373599997,
              -12.02389560499995
            ],
            [
              -76.95898273599994,
              -12.023679479999942
            ],
            [
              -76.95769348599998,
              -12.023135729999979
            ],
            [
              -76.95705248699994,
              -12.022883604999947
            ],
            [
              -76.95656273599997,
              -12.022703479999961
            ],
            [
              -76.95621698699995,
              -12.022624229999963
            ],
            [
              -76.95562636099999,
              -12.02260272999996
            ],
            [
              -76.95503573599996,
              -12.022573854999962
            ],
            [
              -76.95466123699998,
              -12.022422603999928
            ],
            [
              -76.95408498599994,
              -12.022307354999953
            ],
            [
              -76.95357536199998,
              -12.021875604999934
            ],
            [
              -76.95263948599995,
              -12.021255854999936
            ],
            [
              -76.95251573599995,
              -12.02099160499995
            ],
            [
              -76.95236548599996,
              -12.020331728999963
            ],
            [
              -76.95215598599998,
              -12.019747354999936
            ],
            [
              -76.95210323599997,
              -12.019339353999953
            ],
            [
              -76.95208036099996,
              -12.019111229999965
            ],
            [
              -76.95225148599997,
              -12.01912260499995
            ],
            [
              -76.95221723599997,
              -12.018871729999944
            ],
            [
              -76.95216023699999,
              -12.01868922999995
            ],
            [
              -76.95220586099998,
              -12.018278604999978
            ],
            [
              -76.95221873599996,
              -12.01777347999996
            ],
            [
              -76.95275373699997,
              -12.017285354999956
            ],
            [
              -76.95276861099995,
              -12.017246479999926
            ],
            [
              -76.95285823599994,
              -12.017012729999976
            ],
            [
              -76.95293048599996,
              -12.01682397999997
            ],
            [
              -76.95394148699995,
              -12.014379604999931
            ],
            [
              -76.95472686099998,
              -12.01289735499995
            ],
            [
              -76.95522073599994,
              -12.012265604999982
            ],
            [
              -76.95640636099995,
              -12.01035122999997
            ],
            [
              -76.95814036099995,
              -12.009186729999954
            ],
            [
              -76.95938261099997,
              -12.008047979999958
            ],
            [
              -76.96039186099995,
              -12.007323354999926
            ],
            [
              -76.96146348599996,
              -12.006394728999965
            ],
            [
              -76.96155648599995,
              -12.006314104999944
            ],
            [
              -76.96171736099996,
              -12.006282854999938
            ],
            [
              -76.96329036099996,
              -12.005977479999956
            ],
            [
              -76.96502436099996,
              -12.005201229999955
            ],
            [
              -76.96624073699996,
              -12.004838979999931
            ],
            [
              -76.96740823599998,
              -12.004279354999937
            ],
            [
              -76.96916511099994,
              -12.00051697999993
            ],
            [
              -76.96963098599997,
              -11.998576104999927
            ],
            [
              -76.96976036099994,
              -11.996557479999979
            ],
            [
              -76.96939798599993,
              -11.994926979999946
            ],
            [
              -76.96820761099997,
              -11.993581229999961
            ],
            [
              -76.96668061099996,
              -11.992494354999963
            ],
            [
              -76.96548273599996,
              -11.990487604999942
            ],
            [
              -76.96468786099996,
              -11.989155853999932
            ],
            [
              -76.96365273599997,
              -11.987214854999934
            ],
            [
              -76.96291898599998,
              -11.98523810499995
            ],
            [
              -76.96238461099995,
              -11.983798729999933
            ],
            [
              -76.96101298699995,
              -11.981754229999979
            ],
            [
              -76.95917548599994,
              -11.979036854999947
            ],
            [
              -76.95791511199997,
              -11.976381103999927
            ],
            [
              -76.95772623599998,
              -11.97598297999997
            ],
            [
              -76.95689586099996,
              -11.974616854999965
            ],
            [
              -76.95472661099996,
              -11.97174810499996
            ],
            [
              -76.95349811099999,
              -11.969435604999944
            ],
            [
              -76.95083598599996,
              -11.962556604999975
            ],
            [
              -76.95055761099997,
              -11.96071397999998
            ],
            [
              -76.95027286099997,
              -11.957893104999926
            ],
            [
              -76.95003998599998,
              -11.955512103999979
            ],
            [
              -76.95016936099995,
              -11.95375235499995
            ],
            [
              -76.94921186099998,
              -11.952587729999948
            ],
            [
              -76.94812486099994,
              -11.952121854999973
            ],
            [
              -76.94620986099994,
              -11.952458354999976
            ],
            [
              -76.94463111199997,
              -11.953105354999934
            ],
            [
              -76.94266411099994,
              -11.952820604999943
            ],
            [
              -76.94090436099998,
              -11.952251229999945
            ],
            [
              -76.93973986099996,
              -11.951293728999929
            ],
            [
              -76.93891161199997,
              -11.95002560499995
            ],
            [
              -76.93849086099993,
              -11.94918397899994
            ],
            [
              -76.93805761099998,
              -11.948317604999943
            ],
            [
              -76.93712598599996,
              -11.947592979999968
            ],
            [
              -76.93559911099999,
              -11.946764729999927
            ],
            [
              -76.93492561199997,
              -11.94646647899998
            ],
            [
              -76.93355448599993,
              -11.945858979999969
            ],
            [
              -76.93238998599998,
              -11.944694354999967
            ],
            [
              -76.93202761099997,
              -11.943296979999957
            ],
            [
              -76.93137311099997,
              -11.94217397999995
            ]
          ]
        ]
      },
      "properties": {
        "OBJECTID": 47,
        "IDDPTO": "15",
        "NOMBDEP": "LIMA",
        "IDPROV": "1501",
        "NOMBPROV": "LIMA",
        "IDDIST": "150132",
        "NOMBDIST": "SAN JUAN DE LURIGANCHO",
        "sde.DBO.limites.area": 14045.0680759,
        "Shape.STArea()": 0.011652261285860277,
        "Shape.STLength()": 0.5581919951212876
      }
    }
  ],
  "metadata": {
    "source": "Ministerio del Ambiente del Perú — Límite de los distritos de Lima Metropolitana (INEI, 2017)",
    "service_url": "https://geoservidorperu.minam.gob.pe/arcgis/rest/services/GEOLOMAS_final/MapServer/0/query",
    "districts": [
      "SAN ISIDRO",
      "SAN JUAN DE LURIGANCHO"
    ],
    "crs": "EPSG:4326"
  }
}